Physical Security Measure ID #,Deficiency / Conforming,FacilityID,Lat,Long,Facility type,Post Name,RFA ID,Building Name,RFAType,Measure ID,Description,Description_Short,PVThreat,Tthreat,Cthreat,Region,Country
1,Conforming,1,42.4604° N,71.3489° W,Consular facility,Concord Consular Compond,1,"Office, consular",Office building,1,600_600_600 Contiguous Office Space ,,Alpha,Charlie,Bravo,Northeast,USA
2,Deficient,1,42.4604° N,71.3489° W,Consular facility,Concord Consular Compond,1,"Office, consular",Office building,4,Construct a privacy fence separates housing from Chancery/Consulate area ,,Alpha,Charlie,Bravo,Northeast,
3,Conforming,1,42.4604° N,71.3489° W,Consular facility,Concord Consular Compond,1,"Office, consular",Office building,6,Upgrade perimeter walls and fences to provide 9 ft height specification (without foot/hand holds) ,,Alpha,Charlie,Bravo,Northeast,
4,Deficient,1,42.4604° N,71.3489° W,Consular facility,Concord Consular Compond,1,"Office, consular",Office building,7,Upgrade perimeter walls and fences to provide DS certified anti-ram specification in areas where vehicle approach is possible ,,Alpha,Charlie,Bravo,Northeast,
5,Conforming,1,42.4604° N,71.3489° W,Consular facility,Concord Consular Compond,1,"Office, consular",Office building,15,GSO review options to obtain sufficent setback distance for facility to meet 50' OSPB requirements. ,,Alpha,Charlie,Bravo,Northeast,
6,Deficient,1,42.4604° N,71.3489° W,Consular facility,Concord Consular Compond,1,"Office, consular",Office building,26,Upgrade CAC Consular passback booth to meet 15 min. FE/BR on all sides with a door located on protected side of exterior wall ,,Alpha,Charlie,Bravo,Northeast,
7,Deficient,1,42.4604° N,71.3489° W,Consular facility,Concord Consular Compond,1,"Office, consular",Office building,27,Upgrade CAC Consular passback booth to be separate from guard booth. ,,Alpha,Charlie,Bravo,Northeast,
8,Deficient,1,42.4604° N,71.3489° W,Consular facility,Concord Consular Compond,1,"Office, consular",Office building,38,Upgrade Local guard barrier control with a reset capability ,,Alpha,Charlie,Bravo,Northeast,
9,Conforming,1,42.4604° N,71.3489° W,Consular facility,Concord Consular Compond,1,"Office, consular",Office building,50,Upgrade Vehicle entrance so all walls/fences/gates are equal to or higher than 9 ft. ,,Alpha,Charlie,Bravo,Northeast,
10,Conforming,1,42.4604° N,71.3489° W,Consular facility,Concord Consular Compond,1,"Office, consular",Office building,51,Upgrade Vehicle entrance so all walls/fences/gates are anti-climb ,,Alpha,Charlie,Bravo,Northeast,
11,Deficient,1,42.4604° N,71.3489° W,Consular facility,Concord Consular Compond,1,"Office, consular",Office building,55,Add wall or fence to employee parking outside perimeter wall ,,Alpha,Charlie,Bravo,Northeast,
12,Deficient,1,42.4604° N,71.3489° W,Consular facility,Concord Consular Compond,1,"Office, consular",Office building,69,Upgrade CACs lighting ,,Alpha,Charlie,Bravo,Northeast,
13,Conforming,1,42.4604° N,71.3489° W,Consular facility,Concord Consular Compond,1,"Office, consular",Office building,77,Add lighting to master cutoff ,,Alpha,Charlie,Bravo,Northeast,
14,Conforming,1,42.4604° N,71.3489° W,Consular facility,Concord Consular Compond,1,"Office, consular",Office building,78,Move lighting master cutoff inside ,,Alpha,Charlie,Bravo,Northeast,
15,Conforming,1,42.4604° N,71.3489° W,Consular facility,Concord Consular Compond,1,"Office, consular",Office building,80,Conduct a blast vulnerability study ,,Alpha,Charlie,Bravo,Northeast,
16,Deficient,1,42.4604° N,71.3489° W,Consular facility,Concord Consular Compond,1,"Office, consular",Office building,86,Upgrade building exterior to meet FE/BR standards ,,Alpha,Charlie,Bravo,Northeast,
17,Deficient,1,42.4604° N,71.3489° W,Consular facility,Concord Consular Compond,1,"Office, consular",Office building,90,Upgrade building exterior windows to meet FE/BR standards ,,Alpha,Charlie,Bravo,Northeast,
18,Conforming,1,42.4604° N,71.3489° W,Consular facility,Concord Consular Compond,1,"Office, consular",Office building,93,"Upgrade emergency exit doors with electric emergency lock, override and panic exit device ",,Alpha,Charlie,Bravo,Northeast,
19,Deficient,1,42.4604° N,71.3489° W,Consular facility,Concord Consular Compond,1,"Office, consular",Office building,113,Upgrade MSG/Guard booth with emergency power source ,,Alpha,Charlie,Bravo,Northeast,
20,Deficient,1,42.4604° N,71.3489° W,Consular facility,Concord Consular Compond,1,"Office, consular",Office building,125,Review all secure rooms not located in a CAA to determine if they need to be moved or upgraded. ,,Alpha,Charlie,Bravo,Northeast,
21,Deficient,1,42.4604° N,71.3489° W,Consular facility,Concord Consular Compond,1,"Office, consular",Office building,140,Add PCC emergency generator backup ,,Alpha,Charlie,Bravo,Northeast,
22,Deficient,1,42.4604° N,71.3489° W,Consular facility,Concord Consular Compond,1,"Office, consular",Office building,141,Add PCC means of egress ,,Alpha,Charlie,Bravo,Northeast,
23,Deficient,1,42.4604° N,71.3489° W,Consular facility,Concord Consular Compond,1,"Office, consular",Office building,142,Upgrade PCC to have spherical zone of control ,,Alpha,Charlie,Bravo,Northeast,
24,Deficient,1,42.4604° N,71.3489° W,Consular facility,Concord Consular Compond,2,Consular staff residence,Residence,6,Upgrade perimeter walls and fences to provide 9 ft height specification (without foot/hand holds) ,,Alpha,Charlie,Bravo,Northeast,
25,Deficient,1,42.4604° N,71.3489° W,Consular facility,Concord Consular Compond,2,Consular staff residence,Residence,19,"Create a clear zone, free of all visual obstructions that would conceal an intruder, for a distance of 20 feet inward from the protected side of the perimeter wall or fence ",,Alpha,Charlie,Bravo,Northeast,
26,Conforming,1,42.4604° N,71.3489° W,Consular facility,Concord Consular Compond,2,Consular staff residence,Residence,62,Upgrade Building entrances lighting ,,Alpha,Charlie,Bravo,Northeast,
27,Deficient,1,42.4604° N,71.3489° W,Consular facility,Concord Consular Compond,2,Consular staff residence,Residence,65,Upgrade Residence entrance and hallways lighting ,,Alpha,Charlie,Bravo,Northeast,
28,Deficient,1,42.4604° N,71.3489° W,Consular facility,Concord Consular Compond,2,Consular staff residence,Residence,71,Upgrade Open Areas lighting ,,Alpha,Charlie,Bravo,Northeast,
29,Deficient,1,42.4604° N,71.3489° W,Consular facility,Concord Consular Compond,2,Consular staff residence,Residence,91,Upgrade building exterior windows with 8 mil SRWF ,,Alpha,Charlie,Bravo,Northeast,
30,Deficient,1,42.4604° N,71.3489° W,Consular facility,Concord Consular Compond,2,Consular staff residence,Residence,96,Upgrade Residential Apartment building exterior door to hollow metal door with vision panel and access control hardware. ,,Alpha,Charlie,Bravo,Northeast,
31,Deficient,1,42.4604° N,71.3489° W,Consular facility,Concord Consular Compond,2,Consular staff residence,Residence,97,Upgrade residence exterior doors to provide 5 min. FE protection. ,,Alpha,Charlie,Bravo,Northeast,
32,Conforming,1,42.4604° N,71.3489° W,Consular facility,Concord Consular Compond,2,Consular staff residence,Residence,124,Configure CAA access points to prevent observation of entrants ,,Alpha,Charlie,Bravo,Northeast,
33,Conforming,1,42.4604° N,71.3489° W,Consular facility,Concord Consular Compond,2,Consular staff residence,Residence,144,Upgrade facility to have sufficient safe havens or safe haven space for all assigned staff ,,Alpha,Charlie,Bravo,Northeast,
34,Deficient,1,42.4604° N,71.3489° W,Consular facility,Concord Consular Compond,2,Consular staff residence,Residence,145,Upgrade Routes to safe haven(s) to provide protection from ballistic or mob attack ,,Alpha,Charlie,Bravo,Northeast,
35,Conforming,1,42.4604° N,71.3489° W,Consular facility,Concord Consular Compond,2,Consular staff residence,Residence,149,Upgrade Safe haven(s) doors to meet safe haven door standards ,,Alpha,Charlie,Bravo,Northeast,
36,Deficient,1,42.4604° N,71.3489° W,Consular facility,Concord Consular Compond,2,Consular staff residence,Residence,150,"Upgrade safe haven to have emergency power, ventilation and lighting ",,Alpha,Charlie,Bravo,Northeast,
37,Conforming,1,42.4604° N,71.3489° W,Consular facility,Concord Consular Compond,2,Consular staff residence,Residence,151,Upgrade safe haven to have secured storage for emergency supplies ,,Alpha,Charlie,Bravo,Northeast,
38,Deficient,1,42.4604° N,71.3489° W,Consular facility,Concord Consular Compond,2,Consular staff residence,Residence,164,"Upgrade Compound with sufficient CESs, or CES space ",,Alpha,Charlie,Bravo,Northeast,
39,Deficient,1,42.4604° N,71.3489° W,Consular facility,Concord Consular Compond,2,Consular staff residence,Residence,190,Upgrade Residence with a secondary means of exit in the event of fire or other life threatening emergency. ,,Alpha,Charlie,Bravo,Northeast,
40,Conforming,1,42.4604° N,71.3489° W,Consular facility,Concord Consular Compond,3,Warehouse - supply and distribution,Warehouse,8,Upgrade perimeter fences or walls to deny access to warehouse roof ,,Alpha,Charlie,Bravo,Northeast,
41,Deficient,1,42.4604° N,71.3489° W,Consular facility,Concord Consular Compond,3,Warehouse - supply and distribution,Warehouse,16,GSO review options to obtain sufficent setback distance for facility to meet 65' OSPB requirements. ,,Alpha,Charlie,Bravo,Northeast,
42,Deficient,1,42.4604° N,71.3489° W,Consular facility,Concord Consular Compond,3,Warehouse - supply and distribution,Warehouse,45,"Add Vehicle barrier does have emergency override, visual indication of barrier status, or barrier height is equal or greater than 36 inches ",,Alpha,Charlie,Bravo,Northeast,
43,Conforming,1,42.4604° N,71.3489° W,Consular facility,Concord Consular Compond,3,Warehouse - supply and distribution,Warehouse,59,Upgrade building exterior surfaces lighting ,,Alpha,Charlie,Bravo,Northeast,
44,Deficient,1,42.4604° N,71.3489° W,Consular facility,Concord Consular Compond,3,Warehouse - supply and distribution,Warehouse,85,Upgrade building exterior walls construction to substantial material construction ,,Alpha,Charlie,Bravo,Northeast,
45,Deficient,1,42.4604° N,71.3489° W,Consular facility,Concord Consular Compond,3,Warehouse - supply and distribution,Warehouse,80,Conduct a blast vulnerability study ,,Alpha,Charlie,Bravo,Northeast,
46,Deficient,1,42.4604° N,71.3489° W,Consular facility,Concord Consular Compond,3,Warehouse - supply and distribution,Warehouse,91,Upgrade building exterior windows with 8 mil SRWF ,,Alpha,Charlie,Bravo,Northeast,
47,Conforming,1,42.4604° N,71.3489° W,Consular facility,Concord Consular Compond,3,Warehouse - supply and distribution,Warehouse,92,Upgrade building exterior windows to resist unauthorized access (grills or otherwise constructed) ,,Alpha,Charlie,Bravo,Northeast,
48,Deficient,1,42.4604° N,71.3489° W,Consular facility,Concord Consular Compond,3,Warehouse - supply and distribution,Warehouse,102,Upgrade roll-up-down doors with doors of substantial material ,,Alpha,Charlie,Bravo,Northeast,
49,Conforming,1,42.4604° N,71.3489° W,Consular facility,Concord Consular Compond,3,Warehouse - supply and distribution,Warehouse,104,Upgrade roll-up-down door locking mechanism is accessible from interior only ,,Alpha,Charlie,Bravo,Northeast,
50,Deficient,1,42.4604° N,71.3489° W,Consular facility,Concord Consular Compond,3,Warehouse - supply and distribution,Warehouse,154,Upgrade facility with sufficient safe areas or safe area space for all assigned staff ,,Alpha,Charlie,Bravo,Northeast,
51,Conforming,1,42.4604° N,71.3489° W,Consular facility,Concord Consular Compond,3,Warehouse - supply and distribution,Warehouse,161,Upgrade safe area with secondary egress that meets FE/BR and is away from entrance ,,Alpha,Charlie,Bravo,Northeast,
52,Deficient,1,42.4604° N,71.3489° W,Consular facility,Concord Consular Compond,3,Warehouse - supply and distribution,Warehouse,162,"Upgrade Safe area with emergency power, ventilation and lighting ",,Alpha,Charlie,Bravo,Northeast,
53,Deficient,1,42.4604° N,71.3489° W,Consular facility,Concord Consular Compond,3,Warehouse - supply and distribution,Warehouse,165,Upgrade CES in warehouse or in close proximity to warehouse ,,Alpha,Charlie,Bravo,Northeast,
54,Deficient,1,42.4604° N,71.3489° W,Consular facility,Concord Consular Compond,4,Warehouse - mechanical,Warehouse,8,Upgrade perimeter fences or walls to deny access to warehouse roof ,,Alpha,Charlie,Bravo,Northeast,
55,Deficient,1,42.4604° N,71.3489° W,Consular facility,Concord Consular Compond,4,Warehouse - mechanical,Warehouse,16,GSO review options to obtain sufficent setback distance for facility to meet 65' OSPB requirements. ,,Alpha,Charlie,Bravo,Northeast,
56,Conforming,1,42.4604° N,71.3489° W,Consular facility,Concord Consular Compond,4,Warehouse - mechanical,Warehouse,45,"Add Vehicle barrier does have emergency override, visual indication of barrier status, or barrier height is equal or greater than 36 inches ",,Alpha,Charlie,Bravo,Northeast,
57,Conforming,1,42.4604° N,71.3489° W,Consular facility,Concord Consular Compond,4,Warehouse - mechanical,Warehouse,59,Upgrade building exterior surfaces lighting ,,Alpha,Charlie,Bravo,Northeast,
58,Conforming,1,42.4604° N,71.3489° W,Consular facility,Concord Consular Compond,4,Warehouse - mechanical,Warehouse,80,Conduct a blast vulnerability study ,,Alpha,Charlie,Bravo,Northeast,
59,Conforming,1,42.4604° N,71.3489° W,Consular facility,Concord Consular Compond,4,Warehouse - mechanical,Warehouse,85,Upgrade building exterior walls construction to substantial material construction ,,Alpha,Charlie,Bravo,Northeast,
60,Deficient,1,42.4604° N,71.3489° W,Consular facility,Concord Consular Compond,4,Warehouse - mechanical,Warehouse,91,Upgrade building exterior windows with 8 mil SRWF ,,Alpha,Charlie,Bravo,Northeast,
61,Deficient,1,42.4604° N,71.3489° W,Consular facility,Concord Consular Compond,4,Warehouse - mechanical,Warehouse,92,Upgrade building exterior windows to resist unauthorized access (grills or otherwise constructed) ,,Alpha,Charlie,Bravo,Northeast,
62,Conforming,1,42.4604° N,71.3489° W,Consular facility,Concord Consular Compond,4,Warehouse - mechanical,Warehouse,102,Upgrade roll-up-down doors with doors of substantial material ,,Alpha,Charlie,Bravo,Northeast,
63,Conforming,1,42.4604° N,71.3489° W,Consular facility,Concord Consular Compond,4,Warehouse - mechanical,Warehouse,104,Upgrade roll-up-down door locking mechanism is accessible from interior only ,,Alpha,Charlie,Bravo,Northeast,
64,Conforming,1,42.4604° N,71.3489° W,Consular facility,Concord Consular Compond,4,Warehouse - mechanical,Warehouse,154,Upgrade facility with sufficient safe areas or safe area space for all assigned staff ,,Alpha,Charlie,Bravo,Northeast,
65,Conforming,1,42.4604° N,71.3489° W,Consular facility,Concord Consular Compond,4,Warehouse - mechanical,Warehouse,161,Upgrade safe area with secondary egress that meets FE/BR and is away from entrance ,,Alpha,Charlie,Bravo,Northeast,
66,Deficient,1,42.4604° N,71.3489° W,Consular facility,Concord Consular Compond,4,Warehouse - mechanical,Warehouse,162,"Upgrade Safe area with emergency power, ventilation and lighting ",,Alpha,Charlie,Bravo,Northeast,
67,Deficient,1,42.4604° N,71.3489° W,Consular facility,Concord Consular Compond,4,Warehouse - mechanical,Warehouse,172,Close off all but one designated door for all Lock and Leave facilities. ,,Alpha,Charlie,Bravo,Northeast,
68,Deficient,1,42.4604° N,71.3489° W,Consular facility,Concord Consular Compond,4,Warehouse - mechanical,Warehouse,176,Install approved Lock and Leave door ,,Alpha,Charlie,Bravo,Northeast,
69,Deficient,1,42.4604° N,71.3489° W,Consular facility,Concord Consular Compond,5,Facilities building,Warehouse,17,GSO review options to obtain sufficent setback distance for Warehouse to meet 20' OSPB requirements. ,,Alpha,Charlie,Bravo,Northeast,
70,Deficient,1,42.4604° N,71.3489° W,Consular facility,Concord Consular Compond,5,Facilities building,Warehouse,61,Upgrade Roof Surfaces lighting ,,Alpha,Charlie,Bravo,Northeast,
71,Conforming,1,42.4604° N,71.3489° W,Consular facility,Concord Consular Compond,5,Facilities building,Warehouse,87,Upgrade building exterior to make it difficult to scale ,,Alpha,Charlie,Bravo,Northeast,
72,Conforming,1,42.4604° N,71.3489° W,Consular facility,Concord Consular Compond,5,Facilities building,Warehouse,89,Upgrade building exterior doors with strong and robust with RSO-approved hardware ,,Alpha,Charlie,Bravo,Northeast,
73,Conforming,1,42.4604° N,71.3489° W,Consular facility,Concord Consular Compond,5,Facilities building,Warehouse,172,Close off all but one designated door for all Lock and Leave facilities. ,,Alpha,Charlie,Bravo,Northeast,
74,Conforming,1,42.4604° N,71.3489° W,Consular facility,Concord Consular Compond,5,Facilities building,Warehouse,176,Install approved Lock and Leave door ,,Alpha,Charlie,Bravo,Northeast,
75,Conforming,2,42.3601° N,71.0589° W,Embassy,Boston MA,6,Embassy building,Office building,6,Upgrade perimeter walls and fences to provide 9 ft height specification (without foot/hand holds) ,,Alpha,Delta,Bravo,Northeast,
76,Conforming,2,42.3601° N,71.0589° W,Embassy,Boston MA,6,Embassy building,Office building,10,Upgrade perimeter walls and fences are constructed with sufficient height ,,Alpha,Delta,Bravo,Northeast,
77,Deficient,2,42.3601° N,71.0589° W,Embassy,Boston MA,6,Embassy building,Office building,25,Upgrade CAC to provide a guard booth that meets all OSPB requirements. ,,Alpha,Delta,Bravo,Northeast,
78,Deficient,2,42.3601° N,71.0589° W,Embassy,Boston MA,6,Embassy building,Office building,43,Widen traffic lane. ,,Alpha,Delta,Bravo,Northeast,
79,Conforming,2,42.3601° N,71.0589° W,Embassy,Boston MA,6,Embassy building,Office building,53,Relocate employee parking to 50ft or further from building exterior. ,,Alpha,Delta,Bravo,Northeast,
80,Deficient,2,42.3601° N,71.0589° W,Embassy,Boston MA,6,Embassy building,Office building,59,Upgrade building exterior surfaces lighting ,,Alpha,Delta,Bravo,Northeast,
81,Conforming,2,42.3601° N,71.0589° W,Embassy,Boston MA,6,Embassy building,Office building,68,Upgrade Pedestrian entrances lighting ,,Alpha,Delta,Bravo,Northeast,
82,Deficient,2,42.3601° N,71.0589° W,Embassy,Boston MA,6,Embassy building,Office building,84,Upgrade building exterior by grilling man passable openings ,,Alpha,Delta,Bravo,Northeast,
83,Deficient,2,42.3601° N,71.0589° W,Embassy,Boston MA,6,Embassy building,Office building,91,Upgrade building exterior windows with 8 mil SRWF ,,Alpha,Delta,Bravo,Northeast,
84,Conforming,2,42.3601° N,71.0589° W,Embassy,Boston MA,6,Embassy building,Office building,92,Upgrade building exterior windows to resist unauthorized access (grills or otherwise constructed) ,,Alpha,Delta,Bravo,Northeast,
85,Deficient,2,42.3601° N,71.0589° W,Embassy,Boston MA,6,Embassy building,Office building,107,Construct protection for any hardline penetrations ,,Alpha,Delta,Bravo,Northeast,
86,Conforming,2,42.3601° N,71.0589° W,Embassy,Boston MA,6,Embassy building,Office building,119,Consular/Interview/Other Public Access Areas: Upgrade Teller windows to 5 min. FE/BR ,,Alpha,Delta,Bravo,Northeast,
87,Deficient,2,42.3601° N,71.0589° W,Embassy,Boston MA,6,Embassy building,Office building,125,Review all secure rooms not located in a CAA to determine if they need to be moved or upgraded. ,,Alpha,Delta,Bravo,Northeast,
88,Deficient,2,42.3601° N,71.0589° W,Embassy,Boston MA,6,Embassy building,Office building,144,Upgrade facility to have sufficient safe havens or safe haven space for all assigned staff ,,Alpha,Delta,Bravo,Northeast,
89,Deficient,2,42.3601° N,71.0589° W,Embassy,Boston MA,6,Embassy building,Office building,151,Upgrade safe haven to have secured storage for emergency supplies ,,Alpha,Delta,Bravo,Northeast,
90,Conforming,2,42.3601° N,71.0589° W,Embassy,Boston MA,6,Embassy building,Office building,192,"Relocate EC room to a dedicated room, behind the interior hardline, as close to the MSG/Guard booth as possible ",,Alpha,Delta,Bravo,Northeast,
91,Deficient,3,40.7128° N,74.0060° W,Consular office,"New York City, NY",7,Rented office in large building,Office,2,Construct corridors and walls contiguous to non-US Gov. controlled spaces meet 5 min. FE protection and extend from the ceiling slab to floor slab. ,,Alpha,Delta,Bravo,Northeast,
92,Deficient,3,40.7128° N,74.0060° W,Consular office,"New York City, NY",7,Rented office in large building,Office,34,Upgrade Demarcation utility room street side door to provide 5 min. FE with exterior keyed cylinders for the forced entry locks ,,Alpha,Delta,Bravo,Northeast,
93,Conforming,3,40.7128° N,74.0060° W,Consular office,"New York City, NY",7,Rented office in large building,Office,53,Relocate employee parking to 50ft or further from building exterior. ,,Alpha,Delta,Bravo,Northeast,
94,Conforming,3,40.7128° N,74.0060° W,Consular office,"New York City, NY",7,Rented office in large building,Office,91,Upgrade building exterior windows with 8 mil SRWF ,,Alpha,Delta,Bravo,Northeast,
95,Deficient,3,40.7128° N,74.0060° W,Consular office,"New York City, NY",7,Rented office in large building,Office,93,"Upgrade emergency exit doors with electric emergency lock, override and panic exit device ",,Alpha,Delta,Bravo,Northeast,
96,Deficient,3,40.7128° N,74.0060° W,Consular office,"New York City, NY",7,Rented office in large building,Office,119,Consular/Interview/Other Public Access Areas: Upgrade Teller windows to 5 min. FE/BR ,,Alpha,Delta,Bravo,Northeast,
97,Conforming,3,40.7128° N,74.0060° W,Consular office,"New York City, NY",7,Rented office in large building,Office,154,Upgrade facility with sufficient safe areas or safe area space for all assigned staff ,,Alpha,Delta,Bravo,Northeast,
98,Conforming,3,40.7128° N,74.0060° W,Consular office,"New York City, NY",7,Rented office in large building,Office,161,Upgrade safe area with secondary egress that meets FE/BR and is away from entrance ,,Alpha,Delta,Bravo,Northeast,
99,Conforming,3,40.7128° N,74.0060° W,Consular office,"New York City, NY",7,Rented office in large building,Office,162,"Upgrade Safe area with emergency power, ventilation and lighting ",,Alpha,Delta,Bravo,Northeast,
100,Deficient,4,42.4440° N,76.5019° W,Diplomatic support facility,Ithaca NY,8,Office building,Office building,7,Upgrade perimeter walls and fences to provide DS certified anti-ram specification in areas where vehicle approach is possible ,,Alpha,Charlie,Delta,Northeast,
101,Conforming,4,42.4440° N,76.5019° W,Diplomatic support facility,Ithaca NY,8,Office building,Office building,9,Upgrade perimeter walls and fences are constructed with sufficient height ,,Alpha,Charlie,Delta,Northeast,
102,Conforming,4,42.4440° N,76.5019° W,Diplomatic support facility,Ithaca NY,8,Office building,Office building,15,GSO review options to obtain sufficent setback distance for facility to meet 50' OSPB requirements. ,,Alpha,Charlie,Delta,Northeast,
103,Conforming,4,42.4440° N,76.5019° W,Diplomatic support facility,Ithaca NY,8,Office building,Office building,19,"Create a clear zone, free of all visual obstructions that would conceal an intruder, for a distance of 20 feet inward from the protected side of the perimeter wall or fence ",,Alpha,Charlie,Delta,Northeast,
104,Deficient,4,42.4440° N,76.5019° W,Diplomatic support facility,Ithaca NY,8,Office building,Office building,39,Upgrade Local guard barrier control with an annunciator that sounds when barrier is in non-secure position for 0 to 60 sec ,,Alpha,Charlie,Delta,Northeast,
105,Deficient,4,42.4440° N,76.5019° W,Diplomatic support facility,Ithaca NY,8,Office building,Office building,48,Upgrade to DS approved vehicle barrier. ,,Alpha,Charlie,Delta,Northeast,
106,Deficient,4,42.4440° N,76.5019° W,Diplomatic support facility,Ithaca NY,8,Office building,Office building,53,Relocate employee parking to 50ft or further from building exterior. ,,Alpha,Charlie,Delta,Northeast,
107,Conforming,4,42.4440° N,76.5019° W,Diplomatic support facility,Ithaca NY,8,Office building,Office building,62,Upgrade Building entrances lighting ,,Alpha,Charlie,Delta,Northeast,
108,Deficient,4,42.4440° N,76.5019° W,Diplomatic support facility,Ithaca NY,8,Office building,Office building,71,Upgrade Open Areas lighting ,,Alpha,Charlie,Delta,Northeast,
109,Deficient,4,42.4440° N,76.5019° W,Diplomatic support facility,Ithaca NY,8,Office building,Office building,91,Upgrade building exterior windows with 8 mil SRWF ,,Alpha,Charlie,Delta,Northeast,
110,Deficient,4,42.4440° N,76.5019° W,Diplomatic support facility,Ithaca NY,8,Office building,Office building,93,"Upgrade emergency exit doors with electric emergency lock, override and panic exit device ",,Alpha,Charlie,Delta,Northeast,
111,Deficient,4,42.4440° N,76.5019° W,Diplomatic support facility,Ithaca NY,8,Office building,Office building,112,Upgrade MSG/Guard booth to provide six sided protection. ,,Alpha,Charlie,Delta,Northeast,
112,Deficient,4,42.4440° N,76.5019° W,Diplomatic support facility,Ithaca NY,8,Office building,Office building,113,Upgrade MSG/Guard booth with emergency power source ,,Alpha,Charlie,Delta,Northeast,
113,Conforming,4,42.4440° N,76.5019° W,Diplomatic support facility,Ithaca NY,8,Office building,Office building,154,Upgrade facility with sufficient safe areas or safe area space for all assigned staff ,,Alpha,Charlie,Delta,Northeast,
114,Deficient,4,42.4440° N,76.5019° W,Diplomatic support facility,Ithaca NY,8,Office building,Office building,157,Upgrade routes to safe areas with protection from ballistic or mob attack ,,Alpha,Charlie,Delta,Northeast,
115,Conforming,4,42.4440° N,76.5019° W,Diplomatic support facility,Ithaca NY,8,Office building,Office building,162,"Upgrade Safe area with emergency power, ventilation and lighting ",,Alpha,Charlie,Delta,Northeast,
116,Deficient,4,42.4440° N,76.5019° W,Diplomatic support facility,Ithaca NY,8,Office building,Office building,192,"Relocate EC room to a dedicated room, behind the interior hardline, as close to the MSG/Guard booth as possible ",,Alpha,Charlie,Delta,Northeast,
117,Conforming,4,42.4440° N,76.5019° W,Diplomatic support facility,Ithaca NY,9,Residential building,Residence,65,Upgrade Residence entrance and hallways lighting ,,Alpha,Charlie,Delta,Northeast,
118,Deficient,4,42.4440° N,76.5019° W,Diplomatic support facility,Ithaca NY,9,Residential building,Residence,91,Upgrade building exterior windows with 8 mil SRWF ,,Alpha,Charlie,Delta,Northeast,
119,Deficient,4,42.4440° N,76.5019° W,Diplomatic support facility,Ithaca NY,9,Residential building,Residence,93,"Upgrade emergency exit doors with electric emergency lock, override and panic exit device ",,Alpha,Charlie,Delta,Northeast,
120,Deficient,4,42.4440° N,76.5019° W,Diplomatic support facility,Ithaca NY,9,Residential building,Residence,96,Upgrade Residential Apartment building exterior door to hollow metal door with vision panel and access control hardware. ,,Alpha,Charlie,Delta,Northeast,
121,Deficient,4,42.4440° N,76.5019° W,Diplomatic support facility,Ithaca NY,9,Residential building,Residence,144,Upgrade facility to have sufficient safe havens or safe haven space for all assigned staff ,,Alpha,Charlie,Delta,Northeast,
122,Deficient,4,42.4440° N,76.5019° W,Diplomatic support facility,Ithaca NY,9,Residential building,Residence,150,"Upgrade safe haven to have emergency power, ventilation and lighting ",,Alpha,Charlie,Delta,Northeast,
123,Conforming,4,42.4440° N,76.5019° W,Diplomatic support facility,Ithaca NY,10,"Warehouse, multipurpose",Warehouse,73,Upgrade Water approaches lighting ,,Alpha,Charlie,Delta,Northeast,
124,Conforming,4,42.4440° N,76.5019° W,Diplomatic support facility,Ithaca NY,10,"Warehouse, multipurpose",Warehouse,87,Upgrade building exterior to make it difficult to scale ,,Alpha,Charlie,Delta,Northeast,
125,Deficient,4,42.4440° N,76.5019° W,Diplomatic support facility,Ithaca NY,10,"Warehouse, multipurpose",Warehouse,91,Upgrade building exterior windows with 8 mil SRWF ,,Alpha,Charlie,Delta,Northeast,
126,Deficient,4,42.4440° N,76.5019° W,Diplomatic support facility,Ithaca NY,10,"Warehouse, multipurpose",Warehouse,102,Upgrade roll-up-down doors with doors of substantial material ,,Alpha,Charlie,Delta,Northeast,
127,Conforming,4,42.4440° N,76.5019° W,Diplomatic support facility,Ithaca NY,10,"Warehouse, multipurpose",Warehouse,104,Upgrade roll-up-down door locking mechanism is accessible from interior only ,,Alpha,Charlie,Delta,Northeast,
128,Deficient,4,42.4440° N,76.5019° W,Diplomatic support facility,Ithaca NY,10,"Warehouse, multipurpose",Warehouse,172,Close off all but one designated door for all Lock and Leave facilities. ,,Alpha,Charlie,Delta,Northeast,
129,Deficient,4,42.4440° N,76.5019° W,Diplomatic support facility,Ithaca NY,10,"Warehouse, multipurpose",Warehouse,176,Install approved Lock and Leave door ,,Alpha,Charlie,Delta,Mid-Altlantic,
130,Conforming,5,39.5096° N,76.1641° W,Consular facility,Abdereen MD,11,"Office, consular",Office building,1,600_600_600 Contiguous Office Space ,,Charlie,Bravo,Alpha,Mid-Altlantic,
131,Deficient,5,39.5096° N,76.1641° W,Consular facility,Abdereen MD,11,"Office, consular",Office building,4,Construct a privacy fence separates housing from Chancery/Consulate area ,,Charlie,Bravo,Alpha,Mid-Altlantic,
132,Conforming,5,39.5096° N,76.1641° W,Consular facility,Abdereen MD,11,"Office, consular",Office building,6,Upgrade perimeter walls and fences to provide 9 ft height specification (without foot/hand holds) ,,Charlie,Bravo,Alpha,Mid-Altlantic,
133,Deficient,5,39.5096° N,76.1641° W,Consular facility,Abdereen MD,11,"Office, consular",Office building,7,Upgrade perimeter walls and fences to provide DS certified anti-ram specification in areas where vehicle approach is possible ,,Charlie,Bravo,Alpha,Mid-Altlantic,
134,Conforming,5,39.5096° N,76.1641° W,Consular facility,Abdereen MD,11,"Office, consular",Office building,15,GSO review options to obtain sufficent setback distance for facility to meet 50' OSPB requirements. ,,Charlie,Bravo,Alpha,Mid-Altlantic,
135,Deficient,5,39.5096° N,76.1641° W,Consular facility,Abdereen MD,11,"Office, consular",Office building,26,Upgrade CAC Consular passback booth to meet 15 min. FE/BR on all sides with a door located on protected side of exterior wall ,,Charlie,Bravo,Alpha,Mid-Altlantic,
136,Deficient,5,39.5096° N,76.1641° W,Consular facility,Abdereen MD,11,"Office, consular",Office building,27,Upgrade CAC Consular passback booth to be separate from guard booth. ,,Charlie,Bravo,Alpha,Mid-Altlantic,
137,Deficient,5,39.5096° N,76.1641° W,Consular facility,Abdereen MD,11,"Office, consular",Office building,38,Upgrade Local guard barrier control with a reset capability ,,Charlie,Bravo,Alpha,Mid-Altlantic,
138,Conforming,5,39.5096° N,76.1641° W,Consular facility,Abdereen MD,11,"Office, consular",Office building,50,Upgrade Vehicle entrance so all walls/fences/gates are equal to or higher than 9 ft. ,,Charlie,Bravo,Alpha,Mid-Altlantic,
139,Conforming,5,39.5096° N,76.1641° W,Consular facility,Abdereen MD,11,"Office, consular",Office building,51,Upgrade Vehicle entrance so all walls/fences/gates are anti-climb ,,Charlie,Bravo,Alpha,Mid-Altlantic,
140,Deficient,5,39.5096° N,76.1641° W,Consular facility,Abdereen MD,11,"Office, consular",Office building,55,Add wall or fence to employee parking outside perimeter wall ,,Charlie,Bravo,Alpha,Mid-Altlantic,
141,Deficient,5,39.5096° N,76.1641° W,Consular facility,Abdereen MD,11,"Office, consular",Office building,69,Upgrade CACs lighting ,,Charlie,Bravo,Alpha,Mid-Altlantic,
142,Conforming,5,39.5096° N,76.1641° W,Consular facility,Abdereen MD,11,"Office, consular",Office building,77,Add lighting to master cutoff ,,Charlie,Bravo,Alpha,Mid-Altlantic,
143,Conforming,5,39.5096° N,76.1641° W,Consular facility,Abdereen MD,11,"Office, consular",Office building,78,Move lighting master cutoff inside ,,Charlie,Bravo,Alpha,Mid-Altlantic,
144,Conforming,5,39.5096° N,76.1641° W,Consular facility,Abdereen MD,11,"Office, consular",Office building,80,Conduct a blast vulnerability study ,,Charlie,Bravo,Alpha,Mid-Altlantic,
145,Deficient,5,39.5096° N,76.1641° W,Consular facility,Abdereen MD,11,"Office, consular",Office building,86,Upgrade building exterior to meet FE/BR standards ,,Charlie,Bravo,Alpha,Mid-Altlantic,
146,Deficient,5,39.5096° N,76.1641° W,Consular facility,Abdereen MD,11,"Office, consular",Office building,90,Upgrade building exterior windows to meet FE/BR standards ,,Charlie,Bravo,Alpha,Mid-Altlantic,
147,Conforming,5,39.5096° N,76.1641° W,Consular facility,Abdereen MD,11,"Office, consular",Office building,93,"Upgrade emergency exit doors with electric emergency lock, override and panic exit device ",,Charlie,Bravo,Alpha,Mid-Altlantic,
148,Deficient,5,39.5096° N,76.1641° W,Consular facility,Abdereen MD,11,"Office, consular",Office building,113,Upgrade MSG/Guard booth with emergency power source ,,Charlie,Bravo,Alpha,Mid-Altlantic,
149,Deficient,5,39.5096° N,76.1641° W,Consular facility,Abdereen MD,11,"Office, consular",Office building,125,Review all secure rooms not located in a CAA to determine if they need to be moved or upgraded. ,,Charlie,Bravo,Alpha,Mid-Altlantic,
150,Deficient,5,39.5096° N,76.1641° W,Consular facility,Abdereen MD,11,"Office, consular",Office building,140,Add PCC emergency generator backup ,,Charlie,Bravo,Alpha,Mid-Altlantic,
151,Deficient,5,39.5096° N,76.1641° W,Consular facility,Abdereen MD,11,"Office, consular",Office building,141,Add PCC means of egress ,,Charlie,Bravo,Alpha,Mid-Altlantic,
152,Deficient,5,39.5096° N,76.1641° W,Consular facility,Abdereen MD,11,"Office, consular",Office building,142,Upgrade PCC to have spherical zone of control ,,Charlie,Bravo,Alpha,Mid-Altlantic,
153,Deficient,5,39.5096° N,76.1641° W,Consular facility,Abdereen MD,12,Consular staff residence,Residence,6,Upgrade perimeter walls and fences to provide 9 ft height specification (without foot/hand holds) ,,Charlie,Bravo,Alpha,Mid-Altlantic,
154,Deficient,5,39.5096° N,76.1641° W,Consular facility,Abdereen MD,12,Consular staff residence,Residence,19,"Create a clear zone, free of all visual obstructions that would conceal an intruder, for a distance of 20 feet inward from the protected side of the perimeter wall or fence ",,Charlie,Bravo,Alpha,Mid-Altlantic,
155,Conforming,5,39.5096° N,76.1641° W,Consular facility,Abdereen MD,12,Consular staff residence,Residence,62,Upgrade Building entrances lighting ,,Charlie,Bravo,Alpha,Mid-Altlantic,
156,Deficient,5,39.5096° N,76.1641° W,Consular facility,Abdereen MD,12,Consular staff residence,Residence,65,Upgrade Residence entrance and hallways lighting ,,Charlie,Bravo,Alpha,Mid-Altlantic,
157,Deficient,5,39.5096° N,76.1641° W,Consular facility,Abdereen MD,12,Consular staff residence,Residence,71,Upgrade Open Areas lighting ,,Charlie,Bravo,Alpha,Mid-Altlantic,
158,Deficient,5,39.5096° N,76.1641° W,Consular facility,Abdereen MD,12,Consular staff residence,Residence,91,Upgrade building exterior windows with 8 mil SRWF ,,Charlie,Bravo,Alpha,Mid-Altlantic,
159,Deficient,5,39.5096° N,76.1641° W,Consular facility,Abdereen MD,12,Consular staff residence,Residence,96,Upgrade Residential Apartment building exterior door to hollow metal door with vision panel and access control hardware. ,,Charlie,Bravo,Alpha,Mid-Altlantic,
160,Deficient,5,39.5096° N,76.1641° W,Consular facility,Abdereen MD,12,Consular staff residence,Residence,97,Upgrade residence exterior doors to provide 5 min. FE protection. ,,Charlie,Bravo,Alpha,Mid-Altlantic,
161,Conforming,5,39.5096° N,76.1641° W,Consular facility,Abdereen MD,12,Consular staff residence,Residence,124,Configure CAA access points to prevent observation of entrants ,,Charlie,Bravo,Alpha,Mid-Altlantic,
162,Conforming,5,39.5096° N,76.1641° W,Consular facility,Abdereen MD,12,Consular staff residence,Residence,144,Upgrade facility to have sufficient safe havens or safe haven space for all assigned staff ,,Charlie,Bravo,Alpha,Mid-Altlantic,
163,Deficient,5,39.5096° N,76.1641° W,Consular facility,Abdereen MD,12,Consular staff residence,Residence,145,Upgrade Routes to safe haven(s) to provide protection from ballistic or mob attack ,,Charlie,Bravo,Alpha,Mid-Altlantic,
164,Conforming,5,39.5096° N,76.1641° W,Consular facility,Abdereen MD,12,Consular staff residence,Residence,149,Upgrade Safe haven(s) doors to meet safe haven door standards ,,Charlie,Bravo,Alpha,Mid-Altlantic,
165,Deficient,5,39.5096° N,76.1641° W,Consular facility,Abdereen MD,12,Consular staff residence,Residence,150,"Upgrade safe haven to have emergency power, ventilation and lighting ",,Charlie,Bravo,Alpha,Mid-Altlantic,
166,Conforming,5,39.5096° N,76.1641° W,Consular facility,Abdereen MD,12,Consular staff residence,Residence,151,Upgrade safe haven to have secured storage for emergency supplies ,,Charlie,Bravo,Alpha,Mid-Altlantic,
167,Deficient,5,39.5096° N,76.1641° W,Consular facility,Abdereen MD,12,Consular staff residence,Residence,164,"Upgrade Compound with sufficient CESs, or CES space ",,Charlie,Bravo,Alpha,Mid-Altlantic,
168,Deficient,5,39.5096° N,76.1641° W,Consular facility,Abdereen MD,12,Consular staff residence,Residence,190,Upgrade Residence with a secondary means of exit in the event of fire or other life threatening emergency. ,,Charlie,Bravo,Alpha,Mid-Altlantic,
169,Conforming,5,39.5096° N,76.1641° W,Consular facility,Abdereen MD,13,Warehouse - supply and distribution,Warehouse,8,Upgrade perimeter fences or walls to deny access to warehouse roof ,,Charlie,Bravo,Alpha,Mid-Altlantic,
170,Deficient,5,39.5096° N,76.1641° W,Consular facility,Abdereen MD,13,Warehouse - supply and distribution,Warehouse,16,GSO review options to obtain sufficent setback distance for facility to meet 65' OSPB requirements. ,,Charlie,Bravo,Alpha,Mid-Altlantic,
171,Deficient,5,39.5096° N,76.1641° W,Consular facility,Abdereen MD,13,Warehouse - supply and distribution,Warehouse,45,"Add Vehicle barrier does have emergency override, visual indication of barrier status, or barrier height is equal or greater than 36 inches ",,Charlie,Bravo,Alpha,Mid-Altlantic,
172,Conforming,5,39.5096° N,76.1641° W,Consular facility,Abdereen MD,13,Warehouse - supply and distribution,Warehouse,59,Upgrade building exterior surfaces lighting ,,Charlie,Bravo,Alpha,Mid-Altlantic,
173,Deficient,5,39.5096° N,76.1641° W,Consular facility,Abdereen MD,13,Warehouse - supply and distribution,Warehouse,85,Upgrade building exterior walls construction to substantial material construction ,,Charlie,Bravo,Alpha,Mid-Altlantic,
174,Deficient,5,39.5096° N,76.1641° W,Consular facility,Abdereen MD,13,Warehouse - supply and distribution,Warehouse,80,Conduct a blast vulnerability study ,,Charlie,Bravo,Alpha,Mid-Altlantic,
175,Deficient,5,39.5096° N,76.1641° W,Consular facility,Abdereen MD,13,Warehouse - supply and distribution,Warehouse,91,Upgrade building exterior windows with 8 mil SRWF ,,Charlie,Bravo,Alpha,Mid-Altlantic,
176,Conforming,5,39.5096° N,76.1641° W,Consular facility,Abdereen MD,13,Warehouse - supply and distribution,Warehouse,92,Upgrade building exterior windows to resist unauthorized access (grills or otherwise constructed) ,,Charlie,Bravo,Alpha,Mid-Altlantic,
177,Deficient,5,39.5096° N,76.1641° W,Consular facility,Abdereen MD,13,Warehouse - supply and distribution,Warehouse,102,Upgrade roll-up-down doors with doors of substantial material ,,Charlie,Bravo,Alpha,Mid-Altlantic,
178,Conforming,5,39.5096° N,76.1641° W,Consular facility,Abdereen MD,13,Warehouse - supply and distribution,Warehouse,104,Upgrade roll-up-down door locking mechanism is accessible from interior only ,,Charlie,Bravo,Alpha,Mid-Altlantic,
179,Deficient,5,39.5096° N,76.1641° W,Consular facility,Abdereen MD,13,Warehouse - supply and distribution,Warehouse,154,Upgrade facility with sufficient safe areas or safe area space for all assigned staff ,,Charlie,Bravo,Alpha,Mid-Altlantic,
180,Conforming,5,39.5096° N,76.1641° W,Consular facility,Abdereen MD,13,Warehouse - supply and distribution,Warehouse,161,Upgrade safe area with secondary egress that meets FE/BR and is away from entrance ,,Charlie,Bravo,Alpha,Mid-Altlantic,
181,Deficient,5,39.5096° N,76.1641° W,Consular facility,Abdereen MD,13,Warehouse - supply and distribution,Warehouse,162,"Upgrade Safe area with emergency power, ventilation and lighting ",,Charlie,Bravo,Alpha,Mid-Altlantic,
182,Deficient,5,39.5096° N,76.1641° W,Consular facility,Abdereen MD,13,Warehouse - supply and distribution,Warehouse,165,Upgrade CES in warehouse or in close proximity to warehouse ,,Charlie,Bravo,Alpha,Mid-Altlantic,
183,Deficient,5,39.5096° N,76.1641° W,Consular facility,Abdereen MD,14,Warehouse - mechanical,Warehouse,8,Upgrade perimeter fences or walls to deny access to warehouse roof ,,Charlie,Bravo,Alpha,Mid-Altlantic,
184,Deficient,5,39.5096° N,76.1641° W,Consular facility,Abdereen MD,14,Warehouse - mechanical,Warehouse,16,GSO review options to obtain sufficent setback distance for facility to meet 65' OSPB requirements. ,,Charlie,Bravo,Alpha,Mid-Altlantic,
185,Conforming,5,39.5096° N,76.1641° W,Consular facility,Abdereen MD,14,Warehouse - mechanical,Warehouse,45,"Add Vehicle barrier does have emergency override, visual indication of barrier status, or barrier height is equal or greater than 36 inches ",,Charlie,Bravo,Alpha,Mid-Altlantic,
186,Conforming,5,39.5096° N,76.1641° W,Consular facility,Abdereen MD,14,Warehouse - mechanical,Warehouse,59,Upgrade building exterior surfaces lighting ,,Charlie,Bravo,Alpha,Mid-Altlantic,
187,Conforming,5,39.5096° N,76.1641° W,Consular facility,Abdereen MD,14,Warehouse - mechanical,Warehouse,80,Conduct a blast vulnerability study ,,Charlie,Bravo,Alpha,Mid-Altlantic,
188,Conforming,5,39.5096° N,76.1641° W,Consular facility,Abdereen MD,14,Warehouse - mechanical,Warehouse,85,Upgrade building exterior walls construction to substantial material construction ,,Charlie,Bravo,Alpha,Mid-Altlantic,
189,Deficient,5,39.5096° N,76.1641° W,Consular facility,Abdereen MD,14,Warehouse - mechanical,Warehouse,91,Upgrade building exterior windows with 8 mil SRWF ,,Charlie,Bravo,Alpha,Mid-Altlantic,
190,Deficient,5,39.5096° N,76.1641° W,Consular facility,Abdereen MD,14,Warehouse - mechanical,Warehouse,92,Upgrade building exterior windows to resist unauthorized access (grills or otherwise constructed) ,,Charlie,Bravo,Alpha,Mid-Altlantic,
191,Conforming,5,39.5096° N,76.1641° W,Consular facility,Abdereen MD,14,Warehouse - mechanical,Warehouse,102,Upgrade roll-up-down doors with doors of substantial material ,,Charlie,Bravo,Alpha,Mid-Altlantic,
192,Conforming,5,39.5096° N,76.1641° W,Consular facility,Abdereen MD,14,Warehouse - mechanical,Warehouse,104,Upgrade roll-up-down door locking mechanism is accessible from interior only ,,Charlie,Bravo,Alpha,Mid-Altlantic,
193,Conforming,5,39.5096° N,76.1641° W,Consular facility,Abdereen MD,14,Warehouse - mechanical,Warehouse,154,Upgrade facility with sufficient safe areas or safe area space for all assigned staff ,,Charlie,Bravo,Alpha,Mid-Altlantic,
194,Conforming,5,39.5096° N,76.1641° W,Consular facility,Abdereen MD,14,Warehouse - mechanical,Warehouse,161,Upgrade safe area with secondary egress that meets FE/BR and is away from entrance ,,Charlie,Bravo,Alpha,Mid-Altlantic,
195,Deficient,5,39.5096° N,76.1641° W,Consular facility,Abdereen MD,14,Warehouse - mechanical,Warehouse,162,"Upgrade Safe area with emergency power, ventilation and lighting ",,Charlie,Bravo,Alpha,Mid-Altlantic,
196,Deficient,5,39.5096° N,76.1641° W,Consular facility,Abdereen MD,14,Warehouse - mechanical,Warehouse,172,Close off all but one designated door for all Lock and Leave facilities. ,,Charlie,Bravo,Alpha,Mid-Altlantic,
197,Deficient,5,39.5096° N,76.1641° W,Consular facility,Abdereen MD,14,Warehouse - mechanical,Warehouse,176,Install approved Lock and Leave door ,,Charlie,Bravo,Alpha,Mid-Altlantic,
198,Deficient,5,39.5096° N,76.1641° W,Consular facility,Abdereen MD,15,Facilities building,Warehouse,17,GSO review options to obtain sufficent setback distance for Warehouse to meet 20' OSPB requirements. ,,Charlie,Bravo,Alpha,Mid-Altlantic,
199,Deficient,5,39.5096° N,76.1641° W,Consular facility,Abdereen MD,15,Facilities building,Warehouse,61,Upgrade Roof Surfaces lighting ,,Charlie,Bravo,Alpha,Mid-Altlantic,
200,Conforming,5,39.5096° N,76.1641° W,Consular facility,Abdereen MD,15,Facilities building,Warehouse,87,Upgrade building exterior to make it difficult to scale ,,Charlie,Bravo,Alpha,Mid-Altlantic,
201,Conforming,5,39.5096° N,76.1641° W,Consular facility,Abdereen MD,15,Facilities building,Warehouse,89,Upgrade building exterior doors with strong and robust with RSO-approved hardware ,,Charlie,Bravo,Alpha,Mid-Altlantic,
202,Conforming,5,39.5096° N,76.1641° W,Consular facility,Abdereen MD,15,Facilities building,Warehouse,172,Close off all but one designated door for all Lock and Leave facilities. ,,Charlie,Bravo,Alpha,Mid-Altlantic,
203,Conforming,5,39.5096° N,76.1641° W,Consular facility,Abdereen MD,15,Facilities building,Warehouse,176,Install approved Lock and Leave door ,,Charlie,Bravo,Alpha,Mid-Altlantic,
204,Conforming,6,38.9072° N,77.0369° W,Embassy,Washington DC,16,Embassy building,Office building,6,Upgrade perimeter walls and fences to provide 9 ft height specification (without foot/hand holds) ,,Delta,Charlie,Bravo,Mid-Altlantic,
205,Conforming,6,38.9072° N,77.0369° W,Embassy,Washington DC,16,Embassy building,Office building,10,Upgrade perimeter walls and fences are constructed with sufficient height ,,Delta,Charlie,Bravo,Mid-Altlantic,
206,Deficient,6,38.9072° N,77.0369° W,Embassy,Washington DC,16,Embassy building,Office building,25,Upgrade CAC to provide a guard booth that meets all OSPB requirements. ,,Delta,Charlie,Bravo,Mid-Altlantic,
207,Deficient,6,38.9072° N,77.0369° W,Embassy,Washington DC,16,Embassy building,Office building,43,Widen traffic lane. ,,Delta,Charlie,Bravo,Mid-Altlantic,
208,Conforming,6,38.9072° N,77.0369° W,Embassy,Washington DC,16,Embassy building,Office building,53,Relocate employee parking to 50ft or further from building exterior. ,,Delta,Charlie,Bravo,Mid-Altlantic,
209,Deficient,6,38.9072° N,77.0369° W,Embassy,Washington DC,16,Embassy building,Office building,59,Upgrade building exterior surfaces lighting ,,Delta,Charlie,Bravo,Mid-Altlantic,
210,Conforming,6,38.9072° N,77.0369° W,Embassy,Washington DC,16,Embassy building,Office building,68,Upgrade Pedestrian entrances lighting ,,Delta,Charlie,Bravo,Mid-Altlantic,
211,Deficient,6,38.9072° N,77.0369° W,Embassy,Washington DC,16,Embassy building,Office building,84,Upgrade building exterior by grilling man passable openings ,,Delta,Charlie,Bravo,Mid-Altlantic,
212,Deficient,6,38.9072° N,77.0369° W,Embassy,Washington DC,16,Embassy building,Office building,91,Upgrade building exterior windows with 8 mil SRWF ,,Delta,Charlie,Bravo,Mid-Altlantic,
213,Conforming,6,38.9072° N,77.0369° W,Embassy,Washington DC,16,Embassy building,Office building,92,Upgrade building exterior windows to resist unauthorized access (grills or otherwise constructed) ,,Delta,Charlie,Bravo,Mid-Altlantic,
214,Deficient,6,38.9072° N,77.0369° W,Embassy,Washington DC,16,Embassy building,Office building,107,Construct protection for any hardline penetrations ,,Delta,Charlie,Bravo,Mid-Altlantic,
215,Conforming,6,38.9072° N,77.0369° W,Embassy,Washington DC,16,Embassy building,Office building,119,Consular/Interview/Other Public Access Areas: Upgrade Teller windows to 5 min. FE/BR ,,Delta,Charlie,Bravo,Mid-Altlantic,
216,Deficient,6,38.9072° N,77.0369° W,Embassy,Washington DC,16,Embassy building,Office building,125,Review all secure rooms not located in a CAA to determine if they need to be moved or upgraded. ,,Delta,Charlie,Bravo,Mid-Altlantic,
217,Deficient,6,38.9072° N,77.0369° W,Embassy,Washington DC,16,Embassy building,Office building,144,Upgrade facility to have sufficient safe havens or safe haven space for all assigned staff ,,Delta,Charlie,Bravo,Mid-Altlantic,
218,Deficient,6,38.9072° N,77.0369° W,Embassy,Washington DC,16,Embassy building,Office building,151,Upgrade safe haven to have secured storage for emergency supplies ,,Delta,Charlie,Bravo,Mid-Altlantic,
219,Conforming,6,38.9072° N,77.0369° W,Embassy,Washington DC,16,Embassy building,Office building,192,"Relocate EC room to a dedicated room, behind the interior hardline, as close to the MSG/Guard booth as possible ",,Delta,Charlie,Bravo,Mid-Altlantic,
220,Deficient,7,38.8048° N,77.0469° W,Consular office,Alexandria VA,17,Rented office in large building,Office,2,Construct corridors and walls contiguous to non-US Gov. controlled spaces meet 5 min. FE protection and extend from the ceiling slab to floor slab. ,,Delta,Bravo ,Alpha,Mid-Altlantic,
221,Deficient,7,38.8048° N,77.0469° W,Consular office,Alexandria VA,17,Rented office in large building,Office,34,Upgrade Demarcation utility room street side door to provide 5 min. FE with exterior keyed cylinders for the forced entry locks ,,Delta,Bravo ,Alpha,Mid-Altlantic,
222,Conforming,7,38.8048° N,77.0469° W,Consular office,Alexandria VA,17,Rented office in large building,Office,53,Relocate employee parking to 50ft or further from building exterior. ,,Delta,Bravo ,Alpha,Mid-Altlantic,
223,Conforming,7,38.8048° N,77.0469° W,Consular office,Alexandria VA,17,Rented office in large building,Office,91,Upgrade building exterior windows with 8 mil SRWF ,,Delta,Bravo ,Alpha,Mid-Altlantic,
224,Deficient,7,38.8048° N,77.0469° W,Consular office,Alexandria VA,17,Rented office in large building,Office,93,"Upgrade emergency exit doors with electric emergency lock, override and panic exit device ",,Delta,Bravo ,Alpha,Mid-Altlantic,
225,Deficient,7,38.8048° N,77.0469° W,Consular office,Alexandria VA,17,Rented office in large building,Office,119,Consular/Interview/Other Public Access Areas: Upgrade Teller windows to 5 min. FE/BR ,,Delta,Bravo ,Alpha,Mid-Altlantic,
226,Conforming,7,38.8048° N,77.0469° W,Consular office,Alexandria VA,17,Rented office in large building,Office,154,Upgrade facility with sufficient safe areas or safe area space for all assigned staff ,,Delta,Bravo ,Alpha,Mid-Altlantic,
227,Conforming,7,38.8048° N,77.0469° W,Consular office,Alexandria VA,17,Rented office in large building,Office,161,Upgrade safe area with secondary egress that meets FE/BR and is away from entrance ,,Delta,Bravo ,Alpha,Mid-Altlantic,
228,Conforming,7,38.8048° N,77.0469° W,Consular office,Alexandria VA,17,Rented office in large building,Office,162,"Upgrade Safe area with emergency power, ventilation and lighting ",,Delta,Bravo ,Alpha,Mid-Altlantic,
229,Deficient,8,39.1582° N,75.5244° W,Diplomatic support facility,Dover DE,18,Office building,Office building,7,Upgrade perimeter walls and fences to provide DS certified anti-ram specification in areas where vehicle approach is possible ,,Bravo,Bravo ,Alpha,Mid-Altlantic,
230,Conforming,8,39.1582° N,75.5244° W,Diplomatic support facility,Dover DE,18,Office building,Office building,9,Upgrade perimeter walls and fences are constructed with sufficient height ,,Bravo,Bravo ,Alpha,Mid-Altlantic,
231,Conforming,8,39.1582° N,75.5244° W,Diplomatic support facility,Dover DE,18,Office building,Office building,15,GSO review options to obtain sufficent setback distance for facility to meet 50' OSPB requirements. ,,Bravo,Bravo ,Alpha,Mid-Altlantic,
232,Conforming,8,39.1582° N,75.5244° W,Diplomatic support facility,Dover DE,18,Office building,Office building,19,"Create a clear zone, free of all visual obstructions that would conceal an intruder, for a distance of 20 feet inward from the protected side of the perimeter wall or fence ",,Bravo,Bravo ,Alpha,Mid-Altlantic,
233,Deficient,8,39.1582° N,75.5244° W,Diplomatic support facility,Dover DE,18,Office building,Office building,39,Upgrade Local guard barrier control with an annunciator that sounds when barrier is in non-secure position for 0 to 60 sec ,,Bravo,Bravo ,Alpha,Mid-Altlantic,
234,Deficient,8,39.1582° N,75.5244° W,Diplomatic support facility,Dover DE,18,Office building,Office building,48,Upgrade to DS approved vehicle barrier. ,,Bravo,Bravo ,Alpha,Mid-Altlantic,
235,Deficient,8,39.1582° N,75.5244° W,Diplomatic support facility,Dover DE,18,Office building,Office building,53,Relocate employee parking to 50ft or further from building exterior. ,,Bravo,Bravo ,Alpha,Mid-Altlantic,
236,Conforming,8,39.1582° N,75.5244° W,Diplomatic support facility,Dover DE,18,Office building,Office building,62,Upgrade Building entrances lighting ,,Bravo,Bravo ,Alpha,Mid-Altlantic,
237,Deficient,8,39.1582° N,75.5244° W,Diplomatic support facility,Dover DE,18,Office building,Office building,71,Upgrade Open Areas lighting ,,Bravo,Bravo ,Alpha,Mid-Altlantic,
238,Deficient,8,39.1582° N,75.5244° W,Diplomatic support facility,Dover DE,18,Office building,Office building,91,Upgrade building exterior windows with 8 mil SRWF ,,Bravo,Bravo ,Alpha,Mid-Altlantic,
239,Deficient,8,39.1582° N,75.5244° W,Diplomatic support facility,Dover DE,18,Office building,Office building,93,"Upgrade emergency exit doors with electric emergency lock, override and panic exit device ",,Bravo,Bravo ,Alpha,Mid-Altlantic,
240,Deficient,8,39.1582° N,75.5244° W,Diplomatic support facility,Dover DE,18,Office building,Office building,112,Upgrade MSG/Guard booth to provide six sided protection. ,,Bravo,Bravo ,Alpha,Mid-Altlantic,
241,Deficient,8,39.1582° N,75.5244° W,Diplomatic support facility,Dover DE,18,Office building,Office building,113,Upgrade MSG/Guard booth with emergency power source ,,Bravo,Bravo ,Alpha,Mid-Altlantic,
242,Conforming,8,39.1582° N,75.5244° W,Diplomatic support facility,Dover DE,18,Office building,Office building,154,Upgrade facility with sufficient safe areas or safe area space for all assigned staff ,,Bravo,Bravo ,Alpha,Mid-Altlantic,
243,Deficient,8,39.1582° N,75.5244° W,Diplomatic support facility,Dover DE,18,Office building,Office building,157,Upgrade routes to safe areas with protection from ballistic or mob attack ,,Bravo,Bravo ,Alpha,Mid-Altlantic,
244,Conforming,8,39.1582° N,75.5244° W,Diplomatic support facility,Dover DE,18,Office building,Office building,162,"Upgrade Safe area with emergency power, ventilation and lighting ",,Bravo,Bravo ,Alpha,Mid-Altlantic,
245,Deficient,8,39.1582° N,75.5244° W,Diplomatic support facility,Dover DE,18,Office building,Office building,192,"Relocate EC room to a dedicated room, behind the interior hardline, as close to the MSG/Guard booth as possible ",,Bravo,Bravo ,Alpha,Mid-Altlantic,
246,Conforming,8,39.1582° N,75.5244° W,Diplomatic support facility,Dover DE,19,Residential building,Residence,65,Upgrade Residence entrance and hallways lighting ,,Bravo,Bravo ,Alpha,Mid-Altlantic,
247,Deficient,8,39.1582° N,75.5244° W,Diplomatic support facility,Dover DE,19,Residential building,Residence,91,Upgrade building exterior windows with 8 mil SRWF ,,Bravo,Bravo ,Alpha,Mid-Altlantic,
248,Deficient,8,39.1582° N,75.5244° W,Diplomatic support facility,Dover DE,19,Residential building,Residence,93,"Upgrade emergency exit doors with electric emergency lock, override and panic exit device ",,Bravo,Bravo ,Alpha,Mid-Altlantic,
249,Deficient,8,39.1582° N,75.5244° W,Diplomatic support facility,Dover DE,19,Residential building,Residence,96,Upgrade Residential Apartment building exterior door to hollow metal door with vision panel and access control hardware. ,,Bravo,Bravo ,Alpha,Mid-Altlantic,
250,Deficient,8,39.1582° N,75.5244° W,Diplomatic support facility,Dover DE,19,Residential building,Residence,144,Upgrade facility to have sufficient safe havens or safe haven space for all assigned staff ,,Bravo,Bravo ,Alpha,Mid-Altlantic,
251,Deficient,8,39.1582° N,75.5244° W,Diplomatic support facility,Dover DE,19,Residential building,Residence,150,"Upgrade safe haven to have emergency power, ventilation and lighting ",,Bravo,Bravo ,Alpha,Mid-Altlantic,
252,Conforming,8,39.1582° N,75.5244° W,Diplomatic support facility,Dover DE,20,"Warehouse, multipurpose",Warehouse,73,Upgrade Water approaches lighting ,,Bravo,Bravo ,Alpha,Mid-Altlantic,
253,Conforming,8,39.1582° N,75.5244° W,Diplomatic support facility,Dover DE,20,"Warehouse, multipurpose",Warehouse,87,Upgrade building exterior to make it difficult to scale ,,Bravo,Bravo ,Alpha,Mid-Altlantic,
254,Deficient,8,39.1582° N,75.5244° W,Diplomatic support facility,Dover DE,20,"Warehouse, multipurpose",Warehouse,91,Upgrade building exterior windows with 8 mil SRWF ,,Bravo,Bravo ,Alpha,Mid-Altlantic,
255,Deficient,8,39.1582° N,75.5244° W,Diplomatic support facility,Dover DE,20,"Warehouse, multipurpose",Warehouse,102,Upgrade roll-up-down doors with doors of substantial material ,,Bravo,Bravo ,Alpha,Mid-Altlantic,
256,Conforming,8,39.1582° N,75.5244° W,Diplomatic support facility,Dover DE,20,"Warehouse, multipurpose",Warehouse,104,Upgrade roll-up-down door locking mechanism is accessible from interior only ,,Bravo,Bravo ,Alpha,Mid-Altlantic,
257,Deficient,8,39.1582° N,75.5244° W,Diplomatic support facility,Dover DE,20,"Warehouse, multipurpose",Warehouse,172,Close off all but one designated door for all Lock and Leave facilities. ,,Bravo,Bravo ,Alpha,Mid-Altlantic,
258,Deficient,8,39.1582° N,75.5244° W,Diplomatic support facility,Dover DE,20,"Warehouse, multipurpose",Warehouse,176,Install approved Lock and Leave door ,,Bravo,Bravo ,Alpha,Mid-Altlantic,
259,Conforming,9,36.1156° N,97.0584° W,Consular facility,Stillwater OK,21,"Office, consular",Office building,1,600_600_600 Contiguous Office Space ,,Alpha,Alpha,Alpha,Southwest,
260,Deficient,9,36.1156° N,97.0584° W,Consular facility,Stillwater OK,21,"Office, consular",Office building,4,Construct a privacy fence separates housing from Chancery/Consulate area ,,Alpha,Alpha,Alpha,Southwest,
261,Conforming,9,36.1156° N,97.0584° W,Consular facility,Stillwater OK,21,"Office, consular",Office building,6,Upgrade perimeter walls and fences to provide 9 ft height specification (without foot/hand holds) ,,Alpha,Alpha,Alpha,Southwest,
262,Deficient,9,36.1156° N,97.0584° W,Consular facility,Stillwater OK,21,"Office, consular",Office building,7,Upgrade perimeter walls and fences to provide DS certified anti-ram specification in areas where vehicle approach is possible ,,Alpha,Alpha,Alpha,Southwest,
263,Conforming,9,36.1156° N,97.0584° W,Consular facility,Stillwater OK,21,"Office, consular",Office building,15,GSO review options to obtain sufficent setback distance for facility to meet 50' OSPB requirements. ,,Alpha,Alpha,Alpha,Southwest,
264,Deficient,9,36.1156° N,97.0584° W,Consular facility,Stillwater OK,21,"Office, consular",Office building,26,Upgrade CAC Consular passback booth to meet 15 min. FE/BR on all sides with a door located on protected side of exterior wall ,,Alpha,Alpha,Alpha,Southwest,
265,Deficient,9,36.1156° N,97.0584° W,Consular facility,Stillwater OK,21,"Office, consular",Office building,27,Upgrade CAC Consular passback booth to be separate from guard booth. ,,Alpha,Alpha,Alpha,Southwest,
266,Deficient,9,36.1156° N,97.0584° W,Consular facility,Stillwater OK,21,"Office, consular",Office building,38,Upgrade Local guard barrier control with a reset capability ,,Alpha,Alpha,Alpha,Southwest,
267,Conforming,9,36.1156° N,97.0584° W,Consular facility,Stillwater OK,21,"Office, consular",Office building,50,Upgrade Vehicle entrance so all walls/fences/gates are equal to or higher than 9 ft. ,,Alpha,Alpha,Alpha,Southwest,
268,Conforming,9,36.1156° N,97.0584° W,Consular facility,Stillwater OK,21,"Office, consular",Office building,51,Upgrade Vehicle entrance so all walls/fences/gates are anti-climb ,,Alpha,Alpha,Alpha,Southwest,
269,Deficient,9,36.1156° N,97.0584° W,Consular facility,Stillwater OK,21,"Office, consular",Office building,55,Add wall or fence to employee parking outside perimeter wall ,,Alpha,Alpha,Alpha,Southwest,
270,Deficient,9,36.1156° N,97.0584° W,Consular facility,Stillwater OK,21,"Office, consular",Office building,69,Upgrade CACs lighting ,,Alpha,Alpha,Alpha,Southwest,
271,Conforming,9,36.1156° N,97.0584° W,Consular facility,Stillwater OK,21,"Office, consular",Office building,77,Add lighting to master cutoff ,,Alpha,Alpha,Alpha,Southwest,
272,Conforming,9,36.1156° N,97.0584° W,Consular facility,Stillwater OK,21,"Office, consular",Office building,78,Move lighting master cutoff inside ,,Alpha,Alpha,Alpha,Southwest,
273,Conforming,9,36.1156° N,97.0584° W,Consular facility,Stillwater OK,21,"Office, consular",Office building,80,Conduct a blast vulnerability study ,,Alpha,Alpha,Alpha,Southwest,
274,Deficient,9,36.1156° N,97.0584° W,Consular facility,Stillwater OK,21,"Office, consular",Office building,86,Upgrade building exterior to meet FE/BR standards ,,Alpha,Alpha,Alpha,Southwest,
275,Deficient,9,36.1156° N,97.0584° W,Consular facility,Stillwater OK,21,"Office, consular",Office building,90,Upgrade building exterior windows to meet FE/BR standards ,,Alpha,Alpha,Alpha,Southwest,
276,Conforming,9,36.1156° N,97.0584° W,Consular facility,Stillwater OK,21,"Office, consular",Office building,93,"Upgrade emergency exit doors with electric emergency lock, override and panic exit device ",,Alpha,Alpha,Alpha,Southwest,
277,Deficient,9,36.1156° N,97.0584° W,Consular facility,Stillwater OK,21,"Office, consular",Office building,113,Upgrade MSG/Guard booth with emergency power source ,,Alpha,Alpha,Alpha,Southwest,
278,Deficient,9,36.1156° N,97.0584° W,Consular facility,Stillwater OK,21,"Office, consular",Office building,125,Review all secure rooms not located in a CAA to determine if they need to be moved or upgraded. ,,Alpha,Alpha,Alpha,Southwest,
279,Deficient,9,36.1156° N,97.0584° W,Consular facility,Stillwater OK,21,"Office, consular",Office building,140,Add PCC emergency generator backup ,,Alpha,Alpha,Alpha,Southwest,
280,Deficient,9,36.1156° N,97.0584° W,Consular facility,Stillwater OK,21,"Office, consular",Office building,141,Add PCC means of egress ,,Alpha,Alpha,Alpha,Southwest,
281,Deficient,9,36.1156° N,97.0584° W,Consular facility,Stillwater OK,21,"Office, consular",Office building,142,Upgrade PCC to have spherical zone of control ,,Alpha,Alpha,Alpha,Southwest,
282,Deficient,9,36.1156° N,97.0584° W,Consular facility,Stillwater OK,22,Consular staff residence,Residence,6,Upgrade perimeter walls and fences to provide 9 ft height specification (without foot/hand holds) ,,Alpha,Alpha,Alpha,Southwest,
283,Deficient,9,36.1156° N,97.0584° W,Consular facility,Stillwater OK,22,Consular staff residence,Residence,19,"Create a clear zone, free of all visual obstructions that would conceal an intruder, for a distance of 20 feet inward from the protected side of the perimeter wall or fence ",,Alpha,Alpha,Alpha,Southwest,
284,Conforming,9,36.1156° N,97.0584° W,Consular facility,Stillwater OK,22,Consular staff residence,Residence,62,Upgrade Building entrances lighting ,,Alpha,Alpha,Alpha,Southwest,
285,Deficient,9,36.1156° N,97.0584° W,Consular facility,Stillwater OK,22,Consular staff residence,Residence,65,Upgrade Residence entrance and hallways lighting ,,Alpha,Alpha,Alpha,Southwest,
286,Deficient,9,36.1156° N,97.0584° W,Consular facility,Stillwater OK,22,Consular staff residence,Residence,71,Upgrade Open Areas lighting ,,Alpha,Alpha,Alpha,Southwest,
287,Deficient,9,36.1156° N,97.0584° W,Consular facility,Stillwater OK,22,Consular staff residence,Residence,91,Upgrade building exterior windows with 8 mil SRWF ,,Alpha,Alpha,Alpha,Southwest,
288,Deficient,9,36.1156° N,97.0584° W,Consular facility,Stillwater OK,22,Consular staff residence,Residence,96,Upgrade Residential Apartment building exterior door to hollow metal door with vision panel and access control hardware. ,,Alpha,Alpha,Alpha,Southwest,
289,Deficient,9,36.1156° N,97.0584° W,Consular facility,Stillwater OK,22,Consular staff residence,Residence,97,Upgrade residence exterior doors to provide 5 min. FE protection. ,,Alpha,Alpha,Alpha,Southwest,
290,Conforming,9,36.1156° N,97.0584° W,Consular facility,Stillwater OK,22,Consular staff residence,Residence,124,Configure CAA access points to prevent observation of entrants ,,Alpha,Alpha,Alpha,Southwest,
291,Conforming,9,36.1156° N,97.0584° W,Consular facility,Stillwater OK,22,Consular staff residence,Residence,144,Upgrade facility to have sufficient safe havens or safe haven space for all assigned staff ,,Alpha,Alpha,Alpha,Southwest,
292,Deficient,9,36.1156° N,97.0584° W,Consular facility,Stillwater OK,22,Consular staff residence,Residence,145,Upgrade Routes to safe haven(s) to provide protection from ballistic or mob attack ,,Alpha,Alpha,Alpha,Southwest,
293,Conforming,9,36.1156° N,97.0584° W,Consular facility,Stillwater OK,22,Consular staff residence,Residence,149,Upgrade Safe haven(s) doors to meet safe haven door standards ,,Alpha,Alpha,Alpha,Southwest,
294,Deficient,9,36.1156° N,97.0584° W,Consular facility,Stillwater OK,22,Consular staff residence,Residence,150,"Upgrade safe haven to have emergency power, ventilation and lighting ",,Alpha,Alpha,Alpha,Southwest,
295,Conforming,9,36.1156° N,97.0584° W,Consular facility,Stillwater OK,22,Consular staff residence,Residence,151,Upgrade safe haven to have secured storage for emergency supplies ,,Alpha,Alpha,Alpha,Southwest,
296,Deficient,9,36.1156° N,97.0584° W,Consular facility,Stillwater OK,22,Consular staff residence,Residence,164,"Upgrade Compound with sufficient CESs, or CES space ",,Alpha,Alpha,Alpha,Southwest,
297,Deficient,9,36.1156° N,97.0584° W,Consular facility,Stillwater OK,22,Consular staff residence,Residence,190,Upgrade Residence with a secondary means of exit in the event of fire or other life threatening emergency. ,,Alpha,Alpha,Alpha,Southwest,
298,Conforming,9,36.1156° N,97.0584° W,Consular facility,Stillwater OK,23,Warehouse - supply and distribution,Warehouse,8,Upgrade perimeter fences or walls to deny access to warehouse roof ,,Alpha,Alpha,Alpha,Southwest,
299,Deficient,9,36.1156° N,97.0584° W,Consular facility,Stillwater OK,23,Warehouse - supply and distribution,Warehouse,16,GSO review options to obtain sufficent setback distance for facility to meet 65' OSPB requirements. ,,Alpha,Alpha,Alpha,Southwest,
300,Deficient,9,36.1156° N,97.0584° W,Consular facility,Stillwater OK,23,Warehouse - supply and distribution,Warehouse,45,"Add Vehicle barrier does have emergency override, visual indication of barrier status, or barrier height is equal or greater than 36 inches ",,Alpha,Alpha,Alpha,Southwest,
301,Conforming,9,36.1156° N,97.0584° W,Consular facility,Stillwater OK,23,Warehouse - supply and distribution,Warehouse,59,Upgrade building exterior surfaces lighting ,,Alpha,Alpha,Alpha,Southwest,
302,Deficient,9,36.1156° N,97.0584° W,Consular facility,Stillwater OK,23,Warehouse - supply and distribution,Warehouse,85,Upgrade building exterior walls construction to substantial material construction ,,Alpha,Alpha,Alpha,Southwest,
303,Deficient,9,36.1156° N,97.0584° W,Consular facility,Stillwater OK,23,Warehouse - supply and distribution,Warehouse,80,Conduct a blast vulnerability study ,,Alpha,Alpha,Alpha,Southwest,
304,Deficient,9,36.1156° N,97.0584° W,Consular facility,Stillwater OK,23,Warehouse - supply and distribution,Warehouse,91,Upgrade building exterior windows with 8 mil SRWF ,,Alpha,Alpha,Alpha,Southwest,
305,Conforming,9,36.1156° N,97.0584° W,Consular facility,Stillwater OK,23,Warehouse - supply and distribution,Warehouse,92,Upgrade building exterior windows to resist unauthorized access (grills or otherwise constructed) ,,Alpha,Alpha,Alpha,Southwest,
306,Deficient,9,36.1156° N,97.0584° W,Consular facility,Stillwater OK,23,Warehouse - supply and distribution,Warehouse,102,Upgrade roll-up-down doors with doors of substantial material ,,Alpha,Alpha,Alpha,Southwest,
307,Conforming,9,36.1156° N,97.0584° W,Consular facility,Stillwater OK,23,Warehouse - supply and distribution,Warehouse,104,Upgrade roll-up-down door locking mechanism is accessible from interior only ,,Alpha,Alpha,Alpha,Southwest,
308,Deficient,9,36.1156° N,97.0584° W,Consular facility,Stillwater OK,23,Warehouse - supply and distribution,Warehouse,154,Upgrade facility with sufficient safe areas or safe area space for all assigned staff ,,Alpha,Alpha,Alpha,Southwest,
309,Conforming,9,36.1156° N,97.0584° W,Consular facility,Stillwater OK,23,Warehouse - supply and distribution,Warehouse,161,Upgrade safe area with secondary egress that meets FE/BR and is away from entrance ,,Alpha,Alpha,Alpha,Southwest,
310,Deficient,9,36.1156° N,97.0584° W,Consular facility,Stillwater OK,23,Warehouse - supply and distribution,Warehouse,162,"Upgrade Safe area with emergency power, ventilation and lighting ",,Alpha,Alpha,Alpha,Southwest,
311,Deficient,9,36.1156° N,97.0584° W,Consular facility,Stillwater OK,23,Warehouse - supply and distribution,Warehouse,165,Upgrade CES in warehouse or in close proximity to warehouse ,,Alpha,Alpha,Alpha,Southwest,
312,Deficient,9,36.1156° N,97.0584° W,Consular facility,Stillwater OK,24,Warehouse - mechanical,Warehouse,8,Upgrade perimeter fences or walls to deny access to warehouse roof ,,Alpha,Alpha,Alpha,Southwest,
313,Deficient,9,36.1156° N,97.0584° W,Consular facility,Stillwater OK,24,Warehouse - mechanical,Warehouse,16,GSO review options to obtain sufficent setback distance for facility to meet 65' OSPB requirements. ,,Alpha,Alpha,Alpha,Southwest,
314,Conforming,9,36.1156° N,97.0584° W,Consular facility,Stillwater OK,24,Warehouse - mechanical,Warehouse,45,"Add Vehicle barrier does have emergency override, visual indication of barrier status, or barrier height is equal or greater than 36 inches ",,Alpha,Alpha,Alpha,Southwest,
315,Conforming,9,36.1156° N,97.0584° W,Consular facility,Stillwater OK,24,Warehouse - mechanical,Warehouse,59,Upgrade building exterior surfaces lighting ,,Alpha,Alpha,Alpha,Southwest,
316,Conforming,9,36.1156° N,97.0584° W,Consular facility,Stillwater OK,24,Warehouse - mechanical,Warehouse,80,Conduct a blast vulnerability study ,,Alpha,Alpha,Alpha,Southwest,
317,Conforming,9,36.1156° N,97.0584° W,Consular facility,Stillwater OK,24,Warehouse - mechanical,Warehouse,85,Upgrade building exterior walls construction to substantial material construction ,,Alpha,Alpha,Alpha,Southwest,
318,Deficient,9,36.1156° N,97.0584° W,Consular facility,Stillwater OK,24,Warehouse - mechanical,Warehouse,91,Upgrade building exterior windows with 8 mil SRWF ,,Alpha,Alpha,Alpha,Southwest,
319,Deficient,9,36.1156° N,97.0584° W,Consular facility,Stillwater OK,24,Warehouse - mechanical,Warehouse,92,Upgrade building exterior windows to resist unauthorized access (grills or otherwise constructed) ,,Alpha,Alpha,Alpha,Southwest,
320,Conforming,9,36.1156° N,97.0584° W,Consular facility,Stillwater OK,24,Warehouse - mechanical,Warehouse,102,Upgrade roll-up-down doors with doors of substantial material ,,Alpha,Alpha,Alpha,Southwest,
321,Conforming,9,36.1156° N,97.0584° W,Consular facility,Stillwater OK,24,Warehouse - mechanical,Warehouse,104,Upgrade roll-up-down door locking mechanism is accessible from interior only ,,Alpha,Alpha,Alpha,Southwest,
322,Conforming,9,36.1156° N,97.0584° W,Consular facility,Stillwater OK,24,Warehouse - mechanical,Warehouse,154,Upgrade facility with sufficient safe areas or safe area space for all assigned staff ,,Alpha,Alpha,Alpha,Southwest,
323,Conforming,9,36.1156° N,97.0584° W,Consular facility,Stillwater OK,24,Warehouse - mechanical,Warehouse,161,Upgrade safe area with secondary egress that meets FE/BR and is away from entrance ,,Alpha,Alpha,Alpha,Southwest,
324,Deficient,9,36.1156° N,97.0584° W,Consular facility,Stillwater OK,24,Warehouse - mechanical,Warehouse,162,"Upgrade Safe area with emergency power, ventilation and lighting ",,Alpha,Alpha,Alpha,Southwest,
325,Deficient,9,36.1156° N,97.0584° W,Consular facility,Stillwater OK,24,Warehouse - mechanical,Warehouse,172,Close off all but one designated door for all Lock and Leave facilities. ,,Alpha,Alpha,Alpha,Southwest,
326,Deficient,9,36.1156° N,97.0584° W,Consular facility,Stillwater OK,24,Warehouse - mechanical,Warehouse,176,Install approved Lock and Leave door ,,Alpha,Alpha,Alpha,Southwest,
327,Deficient,9,36.1156° N,97.0584° W,Consular facility,Stillwater OK,25,Facilities building,Warehouse,17,GSO review options to obtain sufficent setback distance for Warehouse to meet 20' OSPB requirements. ,,Alpha,Alpha,Alpha,Southwest,
328,Deficient,9,36.1156° N,97.0584° W,Consular facility,Stillwater OK,25,Facilities building,Warehouse,61,Upgrade Roof Surfaces lighting ,,Alpha,Alpha,Alpha,Southwest,
329,Conforming,9,36.1156° N,97.0584° W,Consular facility,Stillwater OK,25,Facilities building,Warehouse,87,Upgrade building exterior to make it difficult to scale ,,Alpha,Alpha,Alpha,Southwest,
330,Conforming,9,36.1156° N,97.0584° W,Consular facility,Stillwater OK,25,Facilities building,Warehouse,89,Upgrade building exterior doors with strong and robust with RSO-approved hardware ,,Alpha,Alpha,Alpha,Southwest,
331,Conforming,9,36.1156° N,97.0584° W,Consular facility,Stillwater OK,25,Facilities building,Warehouse,172,Close off all but one designated door for all Lock and Leave facilities. ,,Alpha,Alpha,Alpha,Southwest,
332,Conforming,9,36.1156° N,97.0584° W,Consular facility,Stillwater OK,25,Facilities building,Warehouse,176,Install approved Lock and Leave door ,,Alpha,Alpha,Alpha,Southwest,
333,Conforming,10,30.2672° N,97.7431° W,Embassy,Austin TX,26,Embassy building,Office building,6,Upgrade perimeter walls and fences to provide 9 ft height specification (without foot/hand holds) ,,Bravo,Alpha,Bravo,Southwest,
334,Conforming,10,30.2672° N,97.7431° W,Embassy,Austin TX,26,Embassy building,Office building,10,Upgrade perimeter walls and fences are constructed with sufficient height ,,Bravo,Alpha,Bravo,Southwest,
335,Deficient,10,30.2672° N,97.7431° W,Embassy,Austin TX,26,Embassy building,Office building,25,Upgrade CAC to provide a guard booth that meets all OSPB requirements. ,,Bravo,Alpha,Bravo,Southwest,
336,Deficient,10,30.2672° N,97.7431° W,Embassy,Austin TX,26,Embassy building,Office building,43,Widen traffic lane. ,,Bravo,Alpha,Bravo,Southwest,
337,Conforming,10,30.2672° N,97.7431° W,Embassy,Austin TX,26,Embassy building,Office building,53,Relocate employee parking to 50ft or further from building exterior. ,,Bravo,Alpha,Bravo,Southwest,
338,Deficient,10,30.2672° N,97.7431° W,Embassy,Austin TX,26,Embassy building,Office building,59,Upgrade building exterior surfaces lighting ,,Bravo,Alpha,Bravo,Southwest,
339,Conforming,10,30.2672° N,97.7431° W,Embassy,Austin TX,26,Embassy building,Office building,68,Upgrade Pedestrian entrances lighting ,,Bravo,Alpha,Bravo,Southwest,
340,Deficient,10,30.2672° N,97.7431° W,Embassy,Austin TX,26,Embassy building,Office building,84,Upgrade building exterior by grilling man passable openings ,,Bravo,Alpha,Bravo,Southwest,
341,Deficient,10,30.2672° N,97.7431° W,Embassy,Austin TX,26,Embassy building,Office building,91,Upgrade building exterior windows with 8 mil SRWF ,,Bravo,Alpha,Bravo,Southwest,
342,Conforming,10,30.2672° N,97.7431° W,Embassy,Austin TX,26,Embassy building,Office building,92,Upgrade building exterior windows to resist unauthorized access (grills or otherwise constructed) ,,Bravo,Alpha,Bravo,Southwest,
343,Deficient,10,30.2672° N,97.7431° W,Embassy,Austin TX,26,Embassy building,Office building,107,Construct protection for any hardline penetrations ,,Bravo,Alpha,Bravo,Southwest,
344,Conforming,10,30.2672° N,97.7431° W,Embassy,Austin TX,26,Embassy building,Office building,119,Consular/Interview/Other Public Access Areas: Upgrade Teller windows to 5 min. FE/BR ,,Bravo,Alpha,Bravo,Southwest,
345,Deficient,10,30.2672° N,97.7431° W,Embassy,Austin TX,26,Embassy building,Office building,125,Review all secure rooms not located in a CAA to determine if they need to be moved or upgraded. ,,Bravo,Alpha,Bravo,Southwest,
346,Deficient,10,30.2672° N,97.7431° W,Embassy,Austin TX,26,Embassy building,Office building,144,Upgrade facility to have sufficient safe havens or safe haven space for all assigned staff ,,Bravo,Alpha,Bravo,Southwest,
347,Deficient,10,30.2672° N,97.7431° W,Embassy,Austin TX,26,Embassy building,Office building,151,Upgrade safe haven to have secured storage for emergency supplies ,,Bravo,Alpha,Bravo,Southwest,
348,Conforming,10,30.2672° N,97.7431° W,Embassy,Austin TX,26,Embassy building,Office building,192,"Relocate EC room to a dedicated room, behind the interior hardline, as close to the MSG/Guard booth as possible ",,Bravo,Alpha,Bravo,Southwest,
349,Deficient,11,32.7767° N,96.7970° W,Consular office,Dallas TX,27,Rented office in large building,Office,2,Construct corridors and walls contiguous to non-US Gov. controlled spaces meet 5 min. FE protection and extend from the ceiling slab to floor slab. ,,Alpha,Bravo,Bravo,Southwest,
350,Deficient,11,32.7767° N,96.7970° W,Consular office,Dallas TX,27,Rented office in large building,Office,34,Upgrade Demarcation utility room street side door to provide 5 min. FE with exterior keyed cylinders for the forced entry locks ,,Alpha,Bravo,Bravo,Southwest,
351,Conforming,11,32.7767° N,96.7970° W,Consular office,Dallas TX,27,Rented office in large building,Office,53,Relocate employee parking to 50ft or further from building exterior. ,,Alpha,Bravo,Bravo,Southwest,
352,Conforming,11,32.7767° N,96.7970° W,Consular office,Dallas TX,27,Rented office in large building,Office,91,Upgrade building exterior windows with 8 mil SRWF ,,Alpha,Bravo,Bravo,Southwest,
353,Deficient,11,32.7767° N,96.7970° W,Consular office,Dallas TX,27,Rented office in large building,Office,93,"Upgrade emergency exit doors with electric emergency lock, override and panic exit device ",,Alpha,Bravo,Bravo,Southwest,
354,Deficient,11,32.7767° N,96.7970° W,Consular office,Dallas TX,27,Rented office in large building,Office,119,Consular/Interview/Other Public Access Areas: Upgrade Teller windows to 5 min. FE/BR ,,Alpha,Bravo,Bravo,Southwest,
355,Conforming,11,32.7767° N,96.7970° W,Consular office,Dallas TX,27,Rented office in large building,Office,154,Upgrade facility with sufficient safe areas or safe area space for all assigned staff ,,Alpha,Bravo,Bravo,Southwest,
356,Conforming,11,32.7767° N,96.7970° W,Consular office,Dallas TX,27,Rented office in large building,Office,161,Upgrade safe area with secondary egress that meets FE/BR and is away from entrance ,,Alpha,Bravo,Bravo,Southwest,
357,Conforming,11,32.7767° N,96.7970° W,Consular office,Dallas TX,27,Rented office in large building,Office,162,"Upgrade Safe area with emergency power, ventilation and lighting ",,Alpha,Bravo,Bravo,Southwest,
358,Deficient,12,29.4241° N,98.4936° W,Diplomatic support facility,San Antonio TX,28,Office building,Office building,7,Upgrade perimeter walls and fences to provide DS certified anti-ram specification in areas where vehicle approach is possible ,,Alpha,Alpha,Alpha,Southwest,
359,Conforming,12,29.4241° N,98.4936° W,Diplomatic support facility,San Antonio TX,28,Office building,Office building,9,Upgrade perimeter walls and fences are constructed with sufficient height ,,Alpha,Alpha,Alpha,Southwest,
360,Conforming,12,29.4241° N,98.4936° W,Diplomatic support facility,San Antonio TX,28,Office building,Office building,15,GSO review options to obtain sufficent setback distance for facility to meet 50' OSPB requirements. ,,Alpha,Alpha,Alpha,Southwest,
361,Conforming,12,29.4241° N,98.4936° W,Diplomatic support facility,San Antonio TX,28,Office building,Office building,19,"Create a clear zone, free of all visual obstructions that would conceal an intruder, for a distance of 20 feet inward from the protected side of the perimeter wall or fence ",,Alpha,Alpha,Alpha,Southwest,
362,Deficient,12,29.4241° N,98.4936° W,Diplomatic support facility,San Antonio TX,28,Office building,Office building,39,Upgrade Local guard barrier control with an annunciator that sounds when barrier is in non-secure position for 0 to 60 sec ,,Alpha,Alpha,Alpha,Southwest,
363,Deficient,12,29.4241° N,98.4936° W,Diplomatic support facility,San Antonio TX,28,Office building,Office building,48,Upgrade to DS approved vehicle barrier. ,,Alpha,Alpha,Alpha,Southwest,
364,Deficient,12,29.4241° N,98.4936° W,Diplomatic support facility,San Antonio TX,28,Office building,Office building,53,Relocate employee parking to 50ft or further from building exterior. ,,Alpha,Alpha,Alpha,Southwest,
365,Conforming,12,29.4241° N,98.4936° W,Diplomatic support facility,San Antonio TX,28,Office building,Office building,62,Upgrade Building entrances lighting ,,Alpha,Alpha,Alpha,Southwest,
366,Deficient,12,29.4241° N,98.4936° W,Diplomatic support facility,San Antonio TX,28,Office building,Office building,71,Upgrade Open Areas lighting ,,Alpha,Alpha,Alpha,Southwest,
367,Deficient,12,29.4241° N,98.4936° W,Diplomatic support facility,San Antonio TX,28,Office building,Office building,91,Upgrade building exterior windows with 8 mil SRWF ,,Alpha,Alpha,Alpha,Southwest,
368,Deficient,12,29.4241° N,98.4936° W,Diplomatic support facility,San Antonio TX,28,Office building,Office building,93,"Upgrade emergency exit doors with electric emergency lock, override and panic exit device ",,Alpha,Alpha,Alpha,Southwest,
369,Deficient,12,29.4241° N,98.4936° W,Diplomatic support facility,San Antonio TX,28,Office building,Office building,112,Upgrade MSG/Guard booth to provide six sided protection. ,,Alpha,Alpha,Alpha,Southwest,
370,Deficient,12,29.4241° N,98.4936° W,Diplomatic support facility,San Antonio TX,28,Office building,Office building,113,Upgrade MSG/Guard booth with emergency power source ,,Alpha,Alpha,Alpha,Southwest,
371,Conforming,12,29.4241° N,98.4936° W,Diplomatic support facility,San Antonio TX,28,Office building,Office building,154,Upgrade facility with sufficient safe areas or safe area space for all assigned staff ,,Alpha,Alpha,Alpha,Southwest,
372,Deficient,12,29.4241° N,98.4936° W,Diplomatic support facility,San Antonio TX,28,Office building,Office building,157,Upgrade routes to safe areas with protection from ballistic or mob attack ,,Alpha,Alpha,Alpha,Southwest,
373,Conforming,12,29.4241° N,98.4936° W,Diplomatic support facility,San Antonio TX,28,Office building,Office building,162,"Upgrade Safe area with emergency power, ventilation and lighting ",,Alpha,Alpha,Alpha,Southwest,
374,Deficient,12,29.4241° N,98.4936° W,Diplomatic support facility,San Antonio TX,28,Office building,Office building,192,"Relocate EC room to a dedicated room, behind the interior hardline, as close to the MSG/Guard booth as possible ",,Alpha,Alpha,Alpha,Southwest,
375,Conforming,12,29.4241° N,98.4936° W,Diplomatic support facility,San Antonio TX,29,Residential building,Residence,65,Upgrade Residence entrance and hallways lighting ,,Alpha,Alpha,Alpha,Southwest,
376,Deficient,12,29.4241° N,98.4936° W,Diplomatic support facility,San Antonio TX,29,Residential building,Residence,91,Upgrade building exterior windows with 8 mil SRWF ,,Alpha,Alpha,Alpha,Southwest,
377,Deficient,12,29.4241° N,98.4936° W,Diplomatic support facility,San Antonio TX,29,Residential building,Residence,93,"Upgrade emergency exit doors with electric emergency lock, override and panic exit device ",,Alpha,Alpha,Alpha,Southwest,
378,Deficient,12,29.4241° N,98.4936° W,Diplomatic support facility,San Antonio TX,29,Residential building,Residence,96,Upgrade Residential Apartment building exterior door to hollow metal door with vision panel and access control hardware. ,,Alpha,Alpha,Alpha,Southwest,
379,Deficient,12,29.4241° N,98.4936° W,Diplomatic support facility,San Antonio TX,29,Residential building,Residence,144,Upgrade facility to have sufficient safe havens or safe haven space for all assigned staff ,,Alpha,Alpha,Alpha,Southwest,
380,Deficient,12,29.4241° N,98.4936° W,Diplomatic support facility,San Antonio TX,29,Residential building,Residence,150,"Upgrade safe haven to have emergency power, ventilation and lighting ",,Alpha,Alpha,Alpha,Southwest,
381,Conforming,12,29.4241° N,98.4936° W,Diplomatic support facility,San Antonio TX,30,"Warehouse, multipurpose",Warehouse,73,Upgrade Water approaches lighting ,,Alpha,Alpha,Alpha,Southwest,
382,Conforming,12,29.4241° N,98.4936° W,Diplomatic support facility,San Antonio TX,30,"Warehouse, multipurpose",Warehouse,87,Upgrade building exterior to make it difficult to scale ,,Alpha,Alpha,Alpha,Southwest,
383,Deficient,12,29.4241° N,98.4936° W,Diplomatic support facility,San Antonio TX,30,"Warehouse, multipurpose",Warehouse,91,Upgrade building exterior windows with 8 mil SRWF ,,Alpha,Alpha,Alpha,Southwest,
384,Deficient,12,29.4241° N,98.4936° W,Diplomatic support facility,San Antonio TX,30,"Warehouse, multipurpose",Warehouse,102,Upgrade roll-up-down doors with doors of substantial material ,,Alpha,Alpha,Alpha,Southwest,
385,Conforming,12,29.4241° N,98.4936° W,Diplomatic support facility,San Antonio TX,30,"Warehouse, multipurpose",Warehouse,104,Upgrade roll-up-down door locking mechanism is accessible from interior only ,,Alpha,Alpha,Alpha,Southwest,
386,Deficient,12,29.4241° N,98.4936° W,Diplomatic support facility,San Antonio TX,30,"Warehouse, multipurpose",Warehouse,172,Close off all but one designated door for all Lock and Leave facilities. ,,Alpha,Alpha,Alpha,Southwest,
387,Deficient,12,29.4241° N,98.4936° W,Diplomatic support facility,San Antonio TX,30,"Warehouse, multipurpose",Warehouse,176,Install approved Lock and Leave door ,,Alpha,Alpha,Alpha,Pacific,
388,Conforming,13,38.5449° N,121.7405° W,Consular facility,Davis CA,31,"Office, consular",Office building,1,600_600_600 Contiguous Office Space ,,Alpha,Alpha,Alpha,Pacific,
389,Deficient,13,38.5449° N,121.7405° W,Consular facility,Davis CA,31,"Office, consular",Office building,4,Construct a privacy fence separates housing from Chancery/Consulate area ,,Alpha,Alpha,Alpha,Pacific,
390,Conforming,13,38.5449° N,121.7405° W,Consular facility,Davis CA,31,"Office, consular",Office building,6,Upgrade perimeter walls and fences to provide 9 ft height specification (without foot/hand holds) ,,Alpha,Alpha,Alpha,Pacific,
391,Deficient,13,38.5449° N,121.7405° W,Consular facility,Davis CA,31,"Office, consular",Office building,7,Upgrade perimeter walls and fences to provide DS certified anti-ram specification in areas where vehicle approach is possible ,,Alpha,Alpha,Alpha,Pacific,
392,Conforming,13,38.5449° N,121.7405° W,Consular facility,Davis CA,31,"Office, consular",Office building,15,GSO review options to obtain sufficent setback distance for facility to meet 50' OSPB requirements. ,,Alpha,Alpha,Alpha,Pacific,
393,Deficient,13,38.5449° N,121.7405° W,Consular facility,Davis CA,31,"Office, consular",Office building,26,Upgrade CAC Consular passback booth to meet 15 min. FE/BR on all sides with a door located on protected side of exterior wall ,,Alpha,Alpha,Alpha,Pacific,
394,Deficient,13,38.5449° N,121.7405° W,Consular facility,Davis CA,31,"Office, consular",Office building,27,Upgrade CAC Consular passback booth to be separate from guard booth. ,,Alpha,Alpha,Alpha,Pacific,
395,Deficient,13,38.5449° N,121.7405° W,Consular facility,Davis CA,31,"Office, consular",Office building,38,Upgrade Local guard barrier control with a reset capability ,,Alpha,Alpha,Alpha,Pacific,
396,Conforming,13,38.5449° N,121.7405° W,Consular facility,Davis CA,31,"Office, consular",Office building,50,Upgrade Vehicle entrance so all walls/fences/gates are equal to or higher than 9 ft. ,,Alpha,Alpha,Alpha,Pacific,
397,Conforming,13,38.5449° N,121.7405° W,Consular facility,Davis CA,31,"Office, consular",Office building,51,Upgrade Vehicle entrance so all walls/fences/gates are anti-climb ,,Alpha,Alpha,Alpha,Pacific,
398,Deficient,13,38.5449° N,121.7405° W,Consular facility,Davis CA,31,"Office, consular",Office building,55,Add wall or fence to employee parking outside perimeter wall ,,Alpha,Alpha,Alpha,Pacific,
399,Deficient,13,38.5449° N,121.7405° W,Consular facility,Davis CA,31,"Office, consular",Office building,69,Upgrade CACs lighting ,,Alpha,Alpha,Alpha,Pacific,
400,Conforming,13,38.5449° N,121.7405° W,Consular facility,Davis CA,31,"Office, consular",Office building,77,Add lighting to master cutoff ,,Alpha,Alpha,Alpha,Pacific,
401,Conforming,13,38.5449° N,121.7405° W,Consular facility,Davis CA,31,"Office, consular",Office building,78,Move lighting master cutoff inside ,,Alpha,Alpha,Alpha,Pacific,
402,Conforming,13,38.5449° N,121.7405° W,Consular facility,Davis CA,31,"Office, consular",Office building,80,Conduct a blast vulnerability study ,,Alpha,Alpha,Alpha,Pacific,
403,Deficient,13,38.5449° N,121.7405° W,Consular facility,Davis CA,31,"Office, consular",Office building,86,Upgrade building exterior to meet FE/BR standards ,,Alpha,Alpha,Alpha,Pacific,
404,Deficient,13,38.5449° N,121.7405° W,Consular facility,Davis CA,31,"Office, consular",Office building,90,Upgrade building exterior windows to meet FE/BR standards ,,Alpha,Alpha,Alpha,Pacific,
405,Conforming,13,38.5449° N,121.7405° W,Consular facility,Davis CA,31,"Office, consular",Office building,93,"Upgrade emergency exit doors with electric emergency lock, override and panic exit device ",,Alpha,Alpha,Alpha,Pacific,
406,Deficient,13,38.5449° N,121.7405° W,Consular facility,Davis CA,31,"Office, consular",Office building,113,Upgrade MSG/Guard booth with emergency power source ,,Alpha,Alpha,Alpha,Pacific,
407,Deficient,13,38.5449° N,121.7405° W,Consular facility,Davis CA,31,"Office, consular",Office building,125,Review all secure rooms not located in a CAA to determine if they need to be moved or upgraded. ,,Alpha,Alpha,Alpha,Pacific,
408,Deficient,13,38.5449° N,121.7405° W,Consular facility,Davis CA,31,"Office, consular",Office building,140,Add PCC emergency generator backup ,,Alpha,Alpha,Alpha,Pacific,
409,Deficient,13,38.5449° N,121.7405° W,Consular facility,Davis CA,31,"Office, consular",Office building,141,Add PCC means of egress ,,Alpha,Alpha,Alpha,Pacific,
410,Deficient,13,38.5449° N,121.7405° W,Consular facility,Davis CA,31,"Office, consular",Office building,142,Upgrade PCC to have spherical zone of control ,,Alpha,Alpha,Alpha,Pacific,
411,Deficient,13,38.5449° N,121.7405° W,Consular facility,Davis CA,32,Consular staff residence,Residence,6,Upgrade perimeter walls and fences to provide 9 ft height specification (without foot/hand holds) ,,Alpha,Alpha,Alpha,Pacific,
412,Deficient,13,38.5449° N,121.7405° W,Consular facility,Davis CA,32,Consular staff residence,Residence,19,"Create a clear zone, free of all visual obstructions that would conceal an intruder, for a distance of 20 feet inward from the protected side of the perimeter wall or fence ",,Alpha,Alpha,Alpha,Pacific,
413,Conforming,13,38.5449° N,121.7405° W,Consular facility,Davis CA,32,Consular staff residence,Residence,62,Upgrade Building entrances lighting ,,Alpha,Alpha,Alpha,Pacific,
414,Deficient,13,38.5449° N,121.7405° W,Consular facility,Davis CA,32,Consular staff residence,Residence,65,Upgrade Residence entrance and hallways lighting ,,Alpha,Alpha,Alpha,Pacific,
415,Deficient,13,38.5449° N,121.7405° W,Consular facility,Davis CA,32,Consular staff residence,Residence,71,Upgrade Open Areas lighting ,,Alpha,Alpha,Alpha,Pacific,
416,Deficient,13,38.5449° N,121.7405° W,Consular facility,Davis CA,32,Consular staff residence,Residence,91,Upgrade building exterior windows with 8 mil SRWF ,,Alpha,Alpha,Alpha,Pacific,
417,Deficient,13,38.5449° N,121.7405° W,Consular facility,Davis CA,32,Consular staff residence,Residence,96,Upgrade Residential Apartment building exterior door to hollow metal door with vision panel and access control hardware. ,,Alpha,Alpha,Alpha,Pacific,
418,Deficient,13,38.5449° N,121.7405° W,Consular facility,Davis CA,32,Consular staff residence,Residence,97,Upgrade residence exterior doors to provide 5 min. FE protection. ,,Alpha,Alpha,Alpha,Pacific,
419,Conforming,13,38.5449° N,121.7405° W,Consular facility,Davis CA,32,Consular staff residence,Residence,124,Configure CAA access points to prevent observation of entrants ,,Alpha,Alpha,Alpha,Pacific,
420,Conforming,13,38.5449° N,121.7405° W,Consular facility,Davis CA,32,Consular staff residence,Residence,144,Upgrade facility to have sufficient safe havens or safe haven space for all assigned staff ,,Alpha,Alpha,Alpha,Pacific,
421,Deficient,13,38.5449° N,121.7405° W,Consular facility,Davis CA,32,Consular staff residence,Residence,145,Upgrade Routes to safe haven(s) to provide protection from ballistic or mob attack ,,Alpha,Alpha,Alpha,Pacific,
422,Conforming,13,38.5449° N,121.7405° W,Consular facility,Davis CA,32,Consular staff residence,Residence,149,Upgrade Safe haven(s) doors to meet safe haven door standards ,,Alpha,Alpha,Alpha,Pacific,
423,Deficient,13,38.5449° N,121.7405° W,Consular facility,Davis CA,32,Consular staff residence,Residence,150,"Upgrade safe haven to have emergency power, ventilation and lighting ",,Alpha,Alpha,Alpha,Pacific,
424,Conforming,13,38.5449° N,121.7405° W,Consular facility,Davis CA,32,Consular staff residence,Residence,151,Upgrade safe haven to have secured storage for emergency supplies ,,Alpha,Alpha,Alpha,Pacific,
425,Deficient,13,38.5449° N,121.7405° W,Consular facility,Davis CA,32,Consular staff residence,Residence,164,"Upgrade Compound with sufficient CESs, or CES space ",,Alpha,Alpha,Alpha,Pacific,
426,Deficient,13,38.5449° N,121.7405° W,Consular facility,Davis CA,32,Consular staff residence,Residence,190,Upgrade Residence with a secondary means of exit in the event of fire or other life threatening emergency. ,,Alpha,Alpha,Alpha,Pacific,
427,Conforming,13,38.5449° N,121.7405° W,Consular facility,Davis CA,33,Warehouse - supply and distribution,Warehouse,8,Upgrade perimeter fences or walls to deny access to warehouse roof ,,Alpha,Alpha,Alpha,Pacific,
428,Deficient,13,38.5449° N,121.7405° W,Consular facility,Davis CA,33,Warehouse - supply and distribution,Warehouse,16,GSO review options to obtain sufficent setback distance for facility to meet 65' OSPB requirements. ,,Alpha,Alpha,Alpha,Pacific,
429,Deficient,13,38.5449° N,121.7405° W,Consular facility,Davis CA,33,Warehouse - supply and distribution,Warehouse,45,"Add Vehicle barrier does have emergency override, visual indication of barrier status, or barrier height is equal or greater than 36 inches ",,Alpha,Alpha,Alpha,Pacific,
430,Conforming,13,38.5449° N,121.7405° W,Consular facility,Davis CA,33,Warehouse - supply and distribution,Warehouse,59,Upgrade building exterior surfaces lighting ,,Alpha,Alpha,Alpha,Pacific,
431,Deficient,13,38.5449° N,121.7405° W,Consular facility,Davis CA,33,Warehouse - supply and distribution,Warehouse,85,Upgrade building exterior walls construction to substantial material construction ,,Alpha,Alpha,Alpha,Pacific,
432,Deficient,13,38.5449° N,121.7405° W,Consular facility,Davis CA,33,Warehouse - supply and distribution,Warehouse,80,Conduct a blast vulnerability study ,,Alpha,Alpha,Alpha,Pacific,
433,Deficient,13,38.5449° N,121.7405° W,Consular facility,Davis CA,33,Warehouse - supply and distribution,Warehouse,91,Upgrade building exterior windows with 8 mil SRWF ,,Alpha,Alpha,Alpha,Pacific,
434,Conforming,13,38.5449° N,121.7405° W,Consular facility,Davis CA,33,Warehouse - supply and distribution,Warehouse,92,Upgrade building exterior windows to resist unauthorized access (grills or otherwise constructed) ,,Alpha,Alpha,Alpha,Pacific,
435,Deficient,13,38.5449° N,121.7405° W,Consular facility,Davis CA,33,Warehouse - supply and distribution,Warehouse,102,Upgrade roll-up-down doors with doors of substantial material ,,Alpha,Alpha,Alpha,Pacific,
436,Conforming,13,38.5449° N,121.7405° W,Consular facility,Davis CA,33,Warehouse - supply and distribution,Warehouse,104,Upgrade roll-up-down door locking mechanism is accessible from interior only ,,Alpha,Alpha,Alpha,Pacific,
437,Deficient,13,38.5449° N,121.7405° W,Consular facility,Davis CA,33,Warehouse - supply and distribution,Warehouse,154,Upgrade facility with sufficient safe areas or safe area space for all assigned staff ,,Alpha,Alpha,Alpha,Pacific,
438,Conforming,13,38.5449° N,121.7405° W,Consular facility,Davis CA,33,Warehouse - supply and distribution,Warehouse,161,Upgrade safe area with secondary egress that meets FE/BR and is away from entrance ,,Alpha,Alpha,Alpha,Pacific,
439,Deficient,13,38.5449° N,121.7405° W,Consular facility,Davis CA,33,Warehouse - supply and distribution,Warehouse,162,"Upgrade Safe area with emergency power, ventilation and lighting ",,Alpha,Alpha,Alpha,Pacific,
440,Deficient,13,38.5449° N,121.7405° W,Consular facility,Davis CA,33,Warehouse - supply and distribution,Warehouse,165,Upgrade CES in warehouse or in close proximity to warehouse ,,Alpha,Alpha,Alpha,Pacific,
441,Deficient,13,38.5449° N,121.7405° W,Consular facility,Davis CA,34,Warehouse - mechanical,Warehouse,8,Upgrade perimeter fences or walls to deny access to warehouse roof ,,Alpha,Alpha,Alpha,Pacific,
442,Deficient,13,38.5449° N,121.7405° W,Consular facility,Davis CA,34,Warehouse - mechanical,Warehouse,16,GSO review options to obtain sufficent setback distance for facility to meet 65' OSPB requirements. ,,Alpha,Alpha,Alpha,Pacific,
443,Conforming,13,38.5449° N,121.7405° W,Consular facility,Davis CA,34,Warehouse - mechanical,Warehouse,45,"Add Vehicle barrier does have emergency override, visual indication of barrier status, or barrier height is equal or greater than 36 inches ",,Alpha,Alpha,Alpha,Pacific,
444,Conforming,13,38.5449° N,121.7405° W,Consular facility,Davis CA,34,Warehouse - mechanical,Warehouse,59,Upgrade building exterior surfaces lighting ,,Alpha,Alpha,Alpha,Pacific,
445,Conforming,13,38.5449° N,121.7405° W,Consular facility,Davis CA,34,Warehouse - mechanical,Warehouse,80,Conduct a blast vulnerability study ,,Alpha,Alpha,Alpha,Pacific,
446,Conforming,13,38.5449° N,121.7405° W,Consular facility,Davis CA,34,Warehouse - mechanical,Warehouse,85,Upgrade building exterior walls construction to substantial material construction ,,Alpha,Alpha,Alpha,Pacific,
447,Deficient,13,38.5449° N,121.7405° W,Consular facility,Davis CA,34,Warehouse - mechanical,Warehouse,91,Upgrade building exterior windows with 8 mil SRWF ,,Alpha,Alpha,Alpha,Pacific,
448,Deficient,13,38.5449° N,121.7405° W,Consular facility,Davis CA,34,Warehouse - mechanical,Warehouse,92,Upgrade building exterior windows to resist unauthorized access (grills or otherwise constructed) ,,Alpha,Alpha,Alpha,Pacific,
449,Conforming,13,38.5449° N,121.7405° W,Consular facility,Davis CA,34,Warehouse - mechanical,Warehouse,102,Upgrade roll-up-down doors with doors of substantial material ,,Alpha,Alpha,Alpha,Pacific,
450,Conforming,13,38.5449° N,121.7405° W,Consular facility,Davis CA,34,Warehouse - mechanical,Warehouse,104,Upgrade roll-up-down door locking mechanism is accessible from interior only ,,Alpha,Alpha,Alpha,Pacific,
451,Conforming,13,38.5449° N,121.7405° W,Consular facility,Davis CA,34,Warehouse - mechanical,Warehouse,154,Upgrade facility with sufficient safe areas or safe area space for all assigned staff ,,Alpha,Alpha,Alpha,Pacific,
452,Conforming,13,38.5449° N,121.7405° W,Consular facility,Davis CA,34,Warehouse - mechanical,Warehouse,161,Upgrade safe area with secondary egress that meets FE/BR and is away from entrance ,,Alpha,Alpha,Alpha,Pacific,
453,Deficient,13,38.5449° N,121.7405° W,Consular facility,Davis CA,34,Warehouse - mechanical,Warehouse,162,"Upgrade Safe area with emergency power, ventilation and lighting ",,Alpha,Alpha,Alpha,Pacific,
454,Deficient,13,38.5449° N,121.7405° W,Consular facility,Davis CA,34,Warehouse - mechanical,Warehouse,172,Close off all but one designated door for all Lock and Leave facilities. ,,Alpha,Alpha,Alpha,Pacific,
455,Deficient,13,38.5449° N,121.7405° W,Consular facility,Davis CA,34,Warehouse - mechanical,Warehouse,176,Install approved Lock and Leave door ,,Alpha,Alpha,Alpha,Pacific,
456,Deficient,13,38.5449° N,121.7405° W,Consular facility,Davis CA,35,Facilities building,Warehouse,17,GSO review options to obtain sufficent setback distance for Warehouse to meet 20' OSPB requirements. ,,Alpha,Alpha,Alpha,Pacific,
457,Deficient,13,38.5449° N,121.7405° W,Consular facility,Davis CA,35,Facilities building,Warehouse,61,Upgrade Roof Surfaces lighting ,,Alpha,Alpha,Alpha,Pacific,
458,Conforming,13,38.5449° N,121.7405° W,Consular facility,Davis CA,35,Facilities building,Warehouse,87,Upgrade building exterior to make it difficult to scale ,,Alpha,Alpha,Alpha,Pacific,
459,Conforming,13,38.5449° N,121.7405° W,Consular facility,Davis CA,35,Facilities building,Warehouse,89,Upgrade building exterior doors with strong and robust with RSO-approved hardware ,,Alpha,Alpha,Alpha,Pacific,
460,Conforming,13,38.5449° N,121.7405° W,Consular facility,Davis CA,35,Facilities building,Warehouse,172,Close off all but one designated door for all Lock and Leave facilities. ,,Alpha,Alpha,Alpha,Pacific,
461,Conforming,13,38.5449° N,121.7405° W,Consular facility,Davis CA,35,Facilities building,Warehouse,176,Install approved Lock and Leave door ,,Alpha,Alpha,Alpha,Pacific,
462,Conforming,14,38.5816° N,121.4944° W,Embassy,Sacramento CA,36,Embassy building,Office building,6,Upgrade perimeter walls and fences to provide 9 ft height specification (without foot/hand holds) ,,Bravo,Alpha,Charlie,Pacific,
463,Conforming,14,38.5816° N,121.4944° W,Embassy,Sacramento CA,36,Embassy building,Office building,10,Upgrade perimeter walls and fences are constructed with sufficient height ,,Bravo,Alpha,Charlie,Pacific,
464,Deficient,14,38.5816° N,121.4944° W,Embassy,Sacramento CA,36,Embassy building,Office building,25,Upgrade CAC to provide a guard booth that meets all OSPB requirements. ,,Bravo,Alpha,Charlie,Pacific,
465,Deficient,14,38.5816° N,121.4944° W,Embassy,Sacramento CA,36,Embassy building,Office building,43,Widen traffic lane. ,,Bravo,Alpha,Charlie,Pacific,
466,Conforming,14,38.5816° N,121.4944° W,Embassy,Sacramento CA,36,Embassy building,Office building,53,Relocate employee parking to 50ft or further from building exterior. ,,Bravo,Alpha,Charlie,Pacific,
467,Deficient,14,38.5816° N,121.4944° W,Embassy,Sacramento CA,36,Embassy building,Office building,59,Upgrade building exterior surfaces lighting ,,Bravo,Alpha,Charlie,Pacific,
468,Conforming,14,38.5816° N,121.4944° W,Embassy,Sacramento CA,36,Embassy building,Office building,68,Upgrade Pedestrian entrances lighting ,,Bravo,Alpha,Charlie,Pacific,
469,Deficient,14,38.5816° N,121.4944° W,Embassy,Sacramento CA,36,Embassy building,Office building,84,Upgrade building exterior by grilling man passable openings ,,Bravo,Alpha,Charlie,Pacific,
470,Deficient,14,38.5816° N,121.4944° W,Embassy,Sacramento CA,36,Embassy building,Office building,91,Upgrade building exterior windows with 8 mil SRWF ,,Bravo,Alpha,Charlie,Pacific,
471,Conforming,14,38.5816° N,121.4944° W,Embassy,Sacramento CA,36,Embassy building,Office building,92,Upgrade building exterior windows to resist unauthorized access (grills or otherwise constructed) ,,Bravo,Alpha,Charlie,Pacific,
472,Deficient,14,38.5816° N,121.4944° W,Embassy,Sacramento CA,36,Embassy building,Office building,107,Construct protection for any hardline penetrations ,,Bravo,Alpha,Charlie,Pacific,
473,Conforming,14,38.5816° N,121.4944° W,Embassy,Sacramento CA,36,Embassy building,Office building,119,Consular/Interview/Other Public Access Areas: Upgrade Teller windows to 5 min. FE/BR ,,Bravo,Alpha,Charlie,Pacific,
474,Deficient,14,38.5816° N,121.4944° W,Embassy,Sacramento CA,36,Embassy building,Office building,125,Review all secure rooms not located in a CAA to determine if they need to be moved or upgraded. ,,Bravo,Alpha,Charlie,Pacific,
475,Deficient,14,38.5816° N,121.4944° W,Embassy,Sacramento CA,36,Embassy building,Office building,144,Upgrade facility to have sufficient safe havens or safe haven space for all assigned staff ,,Bravo,Alpha,Charlie,Pacific,
476,Deficient,14,38.5816° N,121.4944° W,Embassy,Sacramento CA,36,Embassy building,Office building,151,Upgrade safe haven to have secured storage for emergency supplies ,,Bravo,Alpha,Charlie,Pacific,
477,Conforming,14,38.5816° N,121.4944° W,Embassy,Sacramento CA,36,Embassy building,Office building,192,"Relocate EC room to a dedicated room, behind the interior hardline, as close to the MSG/Guard booth as possible ",,Bravo,Alpha,Charlie,Pacific,
478,Deficient,15,34.0522° N,118.2437° W,Consular office,Los Angeles CA,37,Rented office in large building,Office,2,Construct corridors and walls contiguous to non-US Gov. controlled spaces meet 5 min. FE protection and extend from the ceiling slab to floor slab. ,,Alpha,Bravo,Delta,Pacific,
479,Deficient,15,34.0522° N,118.2437° W,Consular office,Los Angeles CA,37,Rented office in large building,Office,34,Upgrade Demarcation utility room street side door to provide 5 min. FE with exterior keyed cylinders for the forced entry locks ,,Alpha,Bravo,Delta,Pacific,
480,Conforming,15,34.0522° N,118.2437° W,Consular office,Los Angeles CA,37,Rented office in large building,Office,53,Relocate employee parking to 50ft or further from building exterior. ,,Alpha,Bravo,Delta,Pacific,
481,Conforming,15,34.0522° N,118.2437° W,Consular office,Los Angeles CA,37,Rented office in large building,Office,91,Upgrade building exterior windows with 8 mil SRWF ,,Alpha,Bravo,Delta,Pacific,
482,Deficient,15,34.0522° N,118.2437° W,Consular office,Los Angeles CA,37,Rented office in large building,Office,93,"Upgrade emergency exit doors with electric emergency lock, override and panic exit device ",,Alpha,Bravo,Delta,Pacific,
483,Deficient,15,34.0522° N,118.2437° W,Consular office,Los Angeles CA,37,Rented office in large building,Office,119,Consular/Interview/Other Public Access Areas: Upgrade Teller windows to 5 min. FE/BR ,,Alpha,Bravo,Delta,Pacific,
484,Conforming,15,34.0522° N,118.2437° W,Consular office,Los Angeles CA,37,Rented office in large building,Office,154,Upgrade facility with sufficient safe areas or safe area space for all assigned staff ,,Alpha,Bravo,Delta,Pacific,
485,Conforming,15,34.0522° N,118.2437° W,Consular office,Los Angeles CA,37,Rented office in large building,Office,161,Upgrade safe area with secondary egress that meets FE/BR and is away from entrance ,,Alpha,Bravo,Delta,Pacific,
486,Conforming,15,34.0522° N,118.2437° W,Consular office,Los Angeles CA,37,Rented office in large building,Office,162,"Upgrade Safe area with emergency power, ventilation and lighting ",,Alpha,Bravo,Delta,Pacific,
487,Deficient,16,32.7157° N,117.1611° W,Diplomatic support facility,San Diego CA,38,Office building,Office building,7,Upgrade perimeter walls and fences to provide DS certified anti-ram specification in areas where vehicle approach is possible ,,Bravo,Alpha,Charlie,Pacific,
488,Conforming,16,32.7157° N,117.1611° W,Diplomatic support facility,San Diego CA,38,Office building,Office building,9,Upgrade perimeter walls and fences are constructed with sufficient height ,,Bravo,Alpha,Charlie,Pacific,
489,Conforming,16,32.7157° N,117.1611° W,Diplomatic support facility,San Diego CA,38,Office building,Office building,15,GSO review options to obtain sufficent setback distance for facility to meet 50' OSPB requirements. ,,Bravo,Alpha,Charlie,Pacific,
490,Conforming,16,32.7157° N,117.1611° W,Diplomatic support facility,San Diego CA,38,Office building,Office building,19,"Create a clear zone, free of all visual obstructions that would conceal an intruder, for a distance of 20 feet inward from the protected side of the perimeter wall or fence ",,Bravo,Alpha,Charlie,Pacific,
491,Deficient,16,32.7157° N,117.1611° W,Diplomatic support facility,San Diego CA,38,Office building,Office building,39,Upgrade Local guard barrier control with an annunciator that sounds when barrier is in non-secure position for 0 to 60 sec ,,Bravo,Alpha,Charlie,Pacific,
492,Deficient,16,32.7157° N,117.1611° W,Diplomatic support facility,San Diego CA,38,Office building,Office building,48,Upgrade to DS approved vehicle barrier. ,,Bravo,Alpha,Charlie,Pacific,
493,Deficient,16,32.7157° N,117.1611° W,Diplomatic support facility,San Diego CA,38,Office building,Office building,53,Relocate employee parking to 50ft or further from building exterior. ,,Bravo,Alpha,Charlie,Pacific,
494,Conforming,16,32.7157° N,117.1611° W,Diplomatic support facility,San Diego CA,38,Office building,Office building,62,Upgrade Building entrances lighting ,,Bravo,Alpha,Charlie,Pacific,
495,Deficient,16,32.7157° N,117.1611° W,Diplomatic support facility,San Diego CA,38,Office building,Office building,71,Upgrade Open Areas lighting ,,Bravo,Alpha,Charlie,Pacific,
496,Deficient,16,32.7157° N,117.1611° W,Diplomatic support facility,San Diego CA,38,Office building,Office building,91,Upgrade building exterior windows with 8 mil SRWF ,,Bravo,Alpha,Charlie,Pacific,
497,Deficient,16,32.7157° N,117.1611° W,Diplomatic support facility,San Diego CA,38,Office building,Office building,93,"Upgrade emergency exit doors with electric emergency lock, override and panic exit device ",,Bravo,Alpha,Charlie,Pacific,
498,Deficient,16,32.7157° N,117.1611° W,Diplomatic support facility,San Diego CA,38,Office building,Office building,112,Upgrade MSG/Guard booth to provide six sided protection. ,,Bravo,Alpha,Charlie,Pacific,
499,Deficient,16,32.7157° N,117.1611° W,Diplomatic support facility,San Diego CA,38,Office building,Office building,113,Upgrade MSG/Guard booth with emergency power source ,,Bravo,Alpha,Charlie,Pacific,
500,Conforming,16,32.7157° N,117.1611° W,Diplomatic support facility,San Diego CA,38,Office building,Office building,154,Upgrade facility with sufficient safe areas or safe area space for all assigned staff ,,Bravo,Alpha,Charlie,Pacific,
501,Deficient,16,32.7157° N,117.1611° W,Diplomatic support facility,San Diego CA,38,Office building,Office building,157,Upgrade routes to safe areas with protection from ballistic or mob attack ,,Bravo,Alpha,Charlie,Pacific,
502,Conforming,16,32.7157° N,117.1611° W,Diplomatic support facility,San Diego CA,38,Office building,Office building,162,"Upgrade Safe area with emergency power, ventilation and lighting ",,Bravo,Alpha,Charlie,Pacific,
503,Deficient,16,32.7157° N,117.1611° W,Diplomatic support facility,San Diego CA,38,Office building,Office building,192,"Relocate EC room to a dedicated room, behind the interior hardline, as close to the MSG/Guard booth as possible ",,Bravo,Alpha,Charlie,Pacific,
504,Conforming,16,32.7157° N,117.1611° W,Diplomatic support facility,San Diego CA,39,Residential building,Residence,65,Upgrade Residence entrance and hallways lighting ,,Bravo,Alpha,Charlie,Pacific,
505,Deficient,16,32.7157° N,117.1611° W,Diplomatic support facility,San Diego CA,39,Residential building,Residence,91,Upgrade building exterior windows with 8 mil SRWF ,,Bravo,Alpha,Charlie,Pacific,
506,Deficient,16,32.7157° N,117.1611° W,Diplomatic support facility,San Diego CA,39,Residential building,Residence,93,"Upgrade emergency exit doors with electric emergency lock, override and panic exit device ",,Bravo,Alpha,Charlie,Pacific,
507,Deficient,16,32.7157° N,117.1611° W,Diplomatic support facility,San Diego CA,39,Residential building,Residence,96,Upgrade Residential Apartment building exterior door to hollow metal door with vision panel and access control hardware. ,,Bravo,Alpha,Charlie,Pacific,
508,Deficient,16,32.7157° N,117.1611° W,Diplomatic support facility,San Diego CA,39,Residential building,Residence,144,Upgrade facility to have sufficient safe havens or safe haven space for all assigned staff ,,Bravo,Alpha,Charlie,Pacific,
509,Deficient,16,32.7157° N,117.1611° W,Diplomatic support facility,San Diego CA,39,Residential building,Residence,150,"Upgrade safe haven to have emergency power, ventilation and lighting ",,Bravo,Alpha,Charlie,Pacific,
510,Conforming,16,32.7157° N,117.1611° W,Diplomatic support facility,San Diego CA,40,"Warehouse, multipurpose",Warehouse,73,Upgrade Water approaches lighting ,,Bravo,Alpha,Charlie,Pacific,
511,Conforming,16,32.7157° N,117.1611° W,Diplomatic support facility,San Diego CA,40,"Warehouse, multipurpose",Warehouse,87,Upgrade building exterior to make it difficult to scale ,,Bravo,Alpha,Charlie,Pacific,
512,Deficient,16,32.7157° N,117.1611° W,Diplomatic support facility,San Diego CA,40,"Warehouse, multipurpose",Warehouse,91,Upgrade building exterior windows with 8 mil SRWF ,,Bravo,Alpha,Charlie,Pacific,
513,Deficient,16,32.7157° N,117.1611° W,Diplomatic support facility,San Diego CA,40,"Warehouse, multipurpose",Warehouse,102,Upgrade roll-up-down doors with doors of substantial material ,,Bravo,Alpha,Charlie,Pacific,
514,Conforming,16,32.7157° N,117.1611° W,Diplomatic support facility,San Diego CA,40,"Warehouse, multipurpose",Warehouse,104,Upgrade roll-up-down door locking mechanism is accessible from interior only ,,Bravo,Alpha,Charlie,Pacific,
515,Deficient,16,32.7157° N,117.1611° W,Diplomatic support facility,San Diego CA,40,"Warehouse, multipurpose",Warehouse,172,Close off all but one designated door for all Lock and Leave facilities. ,,Bravo,Alpha,Charlie,Pacific,
516,Deficient,16,32.7157° N,117.1611° W,Diplomatic support facility,San Diego CA,40,"Warehouse, multipurpose",Warehouse,176,Install approved Lock and Leave door ,,Bravo,Alpha,Charlie,Pacific,
